business_id,name,address,city,state,stars
QXAEGFB4oINsVuTFxEYKFQ,Emerald Chinese Restaurant,30 Eglinton Avenue W,Mississauga,ON,2.5
iyPtSR0s6EkvaQFbdJ_jVA,Pearl King,291 King Street W,Toronto,ON,2.5
QZ4GFIArBMGolsVi0XHgcA,Golden Flower Cafe,"1 Spadina Road, Suite 11",Richmond Hill,ON,3.5
j9YFHVQqxM_qKHIc4nck-A,Wong's Asian Cuisine,2173 Lawrence Avenue  E,Scarborough,ON,4
oWEFIvvt_kJCuk2V268XeQ,Summit Garden Chinese,3015 Winston Churchill Boulevard,Mississauga,ON,3
dvbcUnKv2awsIxog7dO4vw,Hong Kong Bistro Cafe,472 Dundas Street W,Toronto,ON,4
PMsqD6wHCfxdrZkGXIepvA,Mandarin Restaurant - Queensway,1255 The Queensway,Etobicoke,ON,3.5
Q62lGVKqoKJ09lZNt2qpfw,Lucky Chinese Restaurant,2650 Lawrence Avenue E,Scarborough,ON,4
tEfvf1cznLZUIeTcKKpAIw,KooKoo Chicken,"River Run Shopping Centre, 1525 Bristol Road W, Unit 10",Mississauga,ON,3.5
l1DtLtgI2hlGNMBSkk5sXg,Shanghai Palace Restaurant,"5149 Country Hills Boulevard NW, Unit 520",Calgary,AB,3
yWwIUmeenyAO7nwc7U0U5A,Niwan Rolls King,"3260 Midland Avenue, Unit F101 & 102",Toronto,ON,3
xNK43KL8NRnoN9azyyrJ6A,Tangerine Asian Cuisine,6415 Erin Mills Parkway,Mississauga,ON,3.5
yDJhScdD8cCCYfO4WNb-CQ,C'est Bon,2685 Yonge St,Toronto,ON,3
XYIPXJ9parr9FtvvcGI1SA,GB Hand-pulled Noodles,66 Edward Street,Toronto,ON,4
6sATfFam9_q9uod0I2aCsg,Wu Tai Vegetarian Restaurant,8425 Woodbine Avenue,Markham,ON,3.5
5bDLpVi7ju83v2Yoeq_0Rw,Tuina Toronto,116 Dundas Street W,Toronto,ON,4
0lUhcajLmtq3H4h9xiiabQ,M.Gao,1550 Boulevard de Maisonneuve O,Montréal,QC,3.5
ojXlVfeYKBisI6EJ0UizAA,Canton Chang Fen,3255 Highway 7 E,Markham,ON,3.5
KbjdEA6SRrjrwiFBtsD93g,Foodie Boy,"4300 Steeles Avenue E, Suite F28F",Markham,ON,3.5
uiShreF9oKvzuqxWWxECAw,Gou Bu Li,"280 W Beaver Creek Rd, Unit 35",Richmond Hill,ON,3
gRbbXVCy6P4C7qqJNJH9eA,Ginger Beef Peking House,"10816 MacLeod Trl SE, Suite 252",Calgary,AB,3.5
pvo-RRtvw1zBAHRzr8669w,Dumpling Buffet,3320 Midland Avenue,Toronto,ON,3
ZL9sk7Imc42BNRhcjgnqPw,Restaurant PM,1809 Rue Saint-Catherine Ouest,Montréal,QC,3.5
3fw2X5bZYeW9xCz_zGhOHg,Tracy Dessert,"3235 Highway 7 E, Unit 29",Markham,ON,3.5
XGX5LW0s-OpjmOpVXXYshg,Asian Legend,"3636 Steeles Ave E, Unit 152",Markham,ON,2.5
rDTCvOrVYN9USxyB-fNHyw,Fu Lam,7165 Boulevard Newman,Montréal,QC,2.5
5H4coiGpvG3XdnU1Nde2xQ,Keung's Restaurant,8380 Kennedy Road,Markham,ON,3
yDVedcyujtCPyuJdPp-ZGw,Seoul House,180 Steeles Avenue W,Thornhill,ON,3
qxdZWoRVwf4lpI_gjAN2gA,Le Bol d'or / Golden Bowl,1200 Boulevard Rome,Brossard,QC,2.5
cjatara6LkXRu2BXD_jxlA,Chat Bar,633 Silver Star Boulevard,Toronto,ON,3.5
TTLDDEeUyOkM4JEsGkIYmw,Szechuan Express,"100 City Centre Drive, Square One Food Court",Mississauga,ON,4
3DXJ7lXJJKHPnydtX_1Mug,Fat Kee Noodle House,"3132 26 Street NE, Suite 345",Calgary,AB,3
YkAIlxYZ1guSqbbowU9X4g,Luckee,328 Wellington Street W,Toronto,ON,3.5
6Bmq3b91hqTwMFn5cpPWzQ,Wonton Time,"4392 Steeles Ave E, Market Village",Markham,ON,4
j1QfFrTE22PAak7rzD8OoQ,Sweet Culture,8392 Kennedy Road,Markham,ON,3.5
hRbUkwU9awUan32CD-mdHA,Golden Court Abalone Restaurant,"Jubilee Square, 270 West Beaver Creek Road",Richmond Hill,ON,3
q4QuS-MaVSXbIFkUZlxZ9g,Win's Seafood Restaurant,"50 Lockridge Ave, Unit 1",Markham,ON,3
uFNM9ICvZN0TEbURIpiIDQ,Chinese Dumplings,645 St. Clair Avenue W,Toronto,ON,3.5
dKzp--NRN0dxkcvAczzSOw,Wok-A-Way Chinese Food & Wings,"2458 Dundas Street W, Unit 18",Mississauga,ON,3.5
GoXOq5SegVlAfaTwtDGTVQ,Kam Shing,6730 Chemin de la Côte-des-Neiges,Montréal,QC,3.5
hTxDm4gsHh01G4KFyQmhxQ,Grand Pearl Restaurant,594 64th Avenue NE,Calgary,AB,2.5
H7rUNMLOYNWKXTLx9poRXg,Happy Jade Seafood Chinese Restaurant,1425 Dundas Street E,Mississauga,ON,3
IDMkHKuwGmJCWv8V4lj8nQ,Six Degrees Community,"204 Spadina Avenue, 1st Floor",Toronto,ON,4.5
Wu_OmrEyhpllBnTNvOYSGQ,Restaurant Shi Tang,1622 De Maisonneuve W,Montréal,QC,4
oWDLyENvjBa5LZdRGGOrow,Golden Palace Restaurant,9886 Torbram Road,Brampton,ON,3
7U23rwCmVWasFQ0cHRMYVw,China 8,"5602 Tenth Line W, Unit 110",Mississauga,ON,3
cEqOh78v1g1RCWHyuHwQng,Buffet Yangtze,"Deerfoot Mall, 901 64 Avenue NE",Calgary,AB,3.5
HP-FMQcqSOEjTmOxVkJD-A,Bao Bao Dim Sum,83 Rue de la Gauchetiete O,Montréal,QC,4
y166Ve7c7y2EnnePytr71Q,1915 Lan Zhou Ramen,185 Dundas Street W,Toronto,ON,3.5
26Kt6gQRF7S6m7crwR0tjw,Hibachi Grill,"1848 Liverpool Road, Suite 6",Pickering,ON,4.5
WEw08dCcOiwH3Sw1f_8DKQ,Chinese Halal Restaurant,101 Ravel Road,North York,ON,3.5
e9smQsCHC7-ghr_7fWz4Mw,Lamb Kebab - Savory Chinese Crepes,492-A Dundas Street W,Toronto,ON,4
TxNeo206T0jMvRRQ4nKSIg,Wok Of Fame,"7700 Hurontario Street, Unit 602",Brampton,ON,3
LRJV0rsDft621knYC86SPA,Esquire Great Eastern,2579 Victoria Park Avenue,Scarborough,ON,3.5
tQH_DyUIWYOHMD7CYg6-jQ,Hakka Wok,9418 Markham Road,Markham,ON,3.5
WnPMdsIcW9oxyXnMNZB5hQ,Spicy Noodle Restaurant,3575 Du Parc Av,Montréal,QC,3.5
2ZZp5V8N0nHlsml01XBJUQ,JXY Dumpling Restaurant,"3250 Midland Avenue, Unit G",Toronto,ON,3.5
as5StqV9pbDhUM0AYP_j9g,Kim Moon Bakery,438 Dundas St W,Toronto,ON,3.5
uAPMb111euz5jJF8_VeO2A,La Casita Chinese Eatery,405 Dundas Street W,Toronto,ON,3
E7eOOXwMC7wwCRywsvNzUA,Congee Queen,"800 Boyer Boulevard, Unit 5",Mississauga,ON,4
RGg86O5SmjhiVglYYpWkEQ,Full House Chinese Cuisine,"4188 Finch Avenue E, Unit 1A",Scarborough,ON,3
xVHzCbDWCwmyavF5PgJRmg,Not Just Noodles,570 Yonge Street,Toronto,ON,3.5
-rx-9Ra2OHfmD1yaUS-CMg,Axia Restaurant & Bar,5045 Plantation Place,Mississauga,ON,3
3iq7mvnwfYlOmdzENYolng,Hutaoli Music Restaurant & Bar,2900 Warden Avenue,Scarborough,ON,3
H7_QV4LceybuWhuuIhlp_w,Hi Shanghai Restaurant,"Splendid China Mall, 4675 Steeles Ave E",Scarborough,ON,3.5
TvHC_I01Ilvd5_fFi4sqIg,Brothers Bakery,7077 Kennedy Road,Markham,ON,3.5
2OB0p5idPAicilqf_wzHLQ,Oxtail Pho & Banh Mi,814 Dundas Street W,Toronto,ON,3.5
I6oxEn1HT41S2GPrDKPPvA,Perfect Chinese Restaurant,4386 Sheppard Avenue E,Scarborough,ON,3
jMEGdDfVSSubmFZhFnUfrg,Regency Palace,328 Centre Street  SE,Calgary,AB,3.5
fcpGO67gqGptI-1vZpXPtA,M Trois,1926 Rue Staint-Catherine O,Montréal,QC,3.5
SvMBtzXfE-3H5pxoR7VD3w,Kenny's Gourmet,"1480 Major Mackenzie Drive E, Unit 7",Richmond Hill,ON,3
AEOTETRSzo5ubm4-Ud4PUg,Wok Box,106-288 Aspen Glen Landing SW,Calgary,AB,4
qgEKyJfuL5LBA6D3V9nR9g,Xiao Long Bao,"175 Commander Boulevard, Unit 1",Toronto,ON,3.5
XlqgkZiXx6l3sZa9ulUTew,Meet Noodles,D 103-1900 Fowler Drive,Mississauga,ON,4.5
ZzcMYCY5Gq6fJQUbmMMGpw,Mr. Ma,1 Place Ville-Marie,Montréal,QC,3.5
e1W5fwngUYf3kdsgxo4spg,Sang-Ji Fried Bao,1 Byng Avenue,North York,ON,4
s0kM86trPEkOKv3quDnoGw,Golden Sunrise Kitchen,"10610 Bayview Avenue, Unit 1-3",Richmond Hill,ON,3
2ZEnhnWEascgZDMdf6kfAg,Chez Chen,1618 Avenue Lincoln,Montréal,QC,4
vflFNEBMH1GSSjvZx3ItdA,U & Me Restaurant,233 Centre Street SW,Calgary,AB,3.5
9gmBTYCBC0uM6uCJdwK2Bw,Hui Lau Shan,505 Hwy 7,Markham,ON,2
lkM72Y21bjBqUGaW7iL7tQ,Very Fair,17 Milliken Boulevard,Toronto,ON,3
iAO50G98koWj0dflTzbs2g,Imperial Dynasty Restaurant,500 Country Hills Blvd NE,Calgary,AB,3.5
QGE9ZsMb7QLMsBf2OvfVMw,Dragon Chinese Restaurant,"118 - 5 Avenue SE, Suite 200, 2nd Floor",Calgary,AB,3.5
2gDHQELrlq3jVuZZfJeWUg,Chop Chop,771 Dundas Street W,Toronto,ON,4
soveyz-6QfPUfLZxdjyicA,Caravelle,1175A Rue Crescent,Montréal,QC,4
u3wWKIIdTZuAYqa2jHJoxA,Konner Chinese Restaurant,"3250 Midland Avenue, Unit 126",Toronto,ON,3.5
Q8MGRNuTnaoOG4xzReLpUg,China Palace,"60 Cottrelle Boulevard, Suite 20",Brampton,ON,2.5
mkQ31BFYV8ri7znJpHd7Ww,T.Pot China Bistro,100 - 9650 Harvest Hills Boulevard NE,Calgary,AB,3.5
t_rnyBYcjuCa5m-HWU0ZwQ,Dragon Pearl Restaurant,"9 Avenue SE, Unit 1223A",Calgary,AB,3.5
2FImjoBv0qvq9NumhcVOyA,South Asia Malaysian Cuisine,3700 Midland Avenue,Toronto,ON,3
FpFRtA1tagxqh_rLFs4XFQ,Sichuan Kungfu Fish,9021 Leslie Street,Richmond Hill,ON,4
0qk9V2K2xWgcCeiLGmU3Wg,Miss Lin Cafe,3601 Hwy 7,Markham,ON,3
mYr9GB-kjRW6I_fDql1Z6A,Hello Wonton Noodle,5313 Yonge Street,North York,ON,3.5
bPLyOh-ul8azUSgZmyR2vg,Richmond Court Restaurant,539 Bur Oak Ave,Markham,ON,2.5
ajkx7NWnjraj_uz20mdbhQ,Restaurant Cuisine Cantonaise,84 Rue de la Gauchetière Ouest,Montréal,QC,3
QHZw2L6LV1qmExNJbfhIsQ,Skyview Fusion Cuisine,8261 Woodbine Avenue,Markham,ON,3
Ugh0_VdoMj0JYaKMUTQfrQ,Sinopino Chinese Restaurant,4820 Av Sheppard E,Scarborough,ON,3.5
g6yfH6oH4B6KxmM6BGB5qQ,Yogi Noodle Delight,165 E Beaver Creek Road,Richmond Hill,ON,3
l9vx-OTdDPU-oHZ17aVxdg,Federick Restaurant,"160 New Delhi Drive, Suite 25",Markham,ON,3.5
HQpMwOOrGND3GaRqMNV9ig,Jim Chai Kee,270 W Beaver Creek Road,Richmond Hill,ON,4
xOUd1W3MmyHXnbr3DxDwqg,Ho Lee Chow,2204 Danforth Avenue,Toronto,ON,1
eD-XLSo-j8uIoTnIlrG8YA,Juicy Dumpling,"280 Spadina Ave, Unit M-N",Toronto,ON,4
SQbOGhzEWgyS8lNqkcu9Fw,Garden Hong Kong Cafe,"28 South Unionville Avenue, Unit 1035",Markham,ON,3.5
I62j-QfY4tO_gMKV-celEA,Lucky Moose Food Mart,393 Dundas Street W,Toronto,ON,3.5
fh-hCT2esNJEocdBdggWoQ,QJD Peking Duck Restaurant,7095 Woodbine Avenue,Markham,ON,3
ruHEkBY2ysclSFIcai4tfg,House of Wong,4601 Kingston Road,Scarborough,ON,2.5
DPoXCmKt5PNXEpZNirg96w,Fusion Flame,"155 Clark Boulevard, Unit 2",Brampton,ON,3
q3ilBINLR7KoBBlxSqCvlA,Pine House Cafe,21-5661 Steeles Avenue E,Toronto,ON,3.5
XEKx5litKe1KkfJpqtmJUw,Dong Kee,3838 Midland Avenue,Toronto,ON,3.5
EzGGUtQtbE8z57pqxE0I8w,Bamboo Buddha Chinese Resturant,752 King Street W,Toronto,ON,3.5
1VAsBosvx02jpvIUxiKvmg,The Dumpling Shop,184 Willowdale Avenue,Toronto,ON,4.5
6WR-XYwYsv7UyFOEIVMyyg,Impérial,"998 Boulevard Saint-Laurent, Étage 6",Montréal,QC,3.5
Kn57RIWAdnVfJHI1loLXOQ,Super Hakka Restaurant,1801 Lawrence Avenue E,Toronto,ON,3.5
9BgLsbR7bIhI7njaLLkMig,Que Ling Vietnamese Cuisine,4443 Sheppard Avenue E,Scarborough,ON,2.5
AbgNPAnuq8X90DUw5FQ2sQ,My Wonderful Kitchen,"350 Highway 7 E, Unit 101",Richmond Hill,ON,3
OXW2erFOPT-Oov6wChxWYA,Lee Chen Asian Bistro,214 King Street W,Toronto,ON,4
SmYGe2qXVsP8zXjhwJkNBw,New Hot Pot King,146 Old Kennedy Road,Markham,ON,3
1fQWV5PVyo6Gsu16KbotPQ,Toronto Acupuncture Studio,1116 College Street,Toronto,ON,4.5
W6HgKXp-gXozKjOqGqIOXg,On The Rocks,169 Front Street E,Toronto,ON,3
eYMYSZBmEeY4yCS2AuBXPg,Phoenix Kitchen + Lounge,"8060 Silver Springs Boulevard NW, Suite 140",Calgary,AB,3.5
VVW8mxu8Ru2UR3lVJYA81Q,Deer Garden Signatures,108-109 550 Highway 7 E,Richmond Hill,ON,3.5
tzKvRnRIemqa727XYV45UA,The Bean Sprout,1448 Lawrence Avenue E,Toronto,ON,4
c56XijYc2vT3YWhtXkPJaw,Northern Chinese Cuisine,713 College Street,Toronto,ON,4
TFXI1fbhrs_kHU-jTKRYCQ,Fish Legend,"3235 Highway 7 E, Unit 23-26",Markham,ON,3.5
VGZ_MJ7P3vSQMYyQf-mNjw,King Dragon Cuisine,"505 Highway 7 E, Unit 238, Building B",Markham,ON,3
pJVPEicWbvcz8ATQGick6g,Yuki Ramen,1616 Rue Sainte-Catherine O,Montréal,QC,4
sDQDMrb5xez4aASZ8U5qTg,Yan Woo Soya Bean Foods,H6 - 4350 Steeles Avenue E,Markham,ON,3.5
v-supbjeNBKNwomn3sLc8g,Fisherman Villa,25 Glen Watford Drive,Scarborough,ON,3.5
GkrElnysLT5iWSEbqcVkzg,Golden Joy Hakka Restaurant,"900 Albion Road, Unit 18",Toronto,ON,4
gtcsOodbmk4E0TulYHnlHA,Northwood,815 W Bloor Street,Toronto,ON,4
n_J4ryIX_f2CVdse8Wd-Ig,Ho Jan Chinese Restaurant,45 Carlton St,Toronto,ON,3
E4T1Z08kU1QmrYj8xh-Y0Q,Tian Xin Place,5 Glen Cameron Rd,Thornhill,ON,3
KHAt_XY7SiRBOZVPSDxJIg,Yuan Lei,4880 Boulevard des Source,Montréal,QC,3
7FlGlQaNx-FnYluwGgrnOw,Hakka Legend Asian Cuisine,"81 Middlecote Drive, Unit 8 and 9",Ajax,ON,3.5
BmSLyxm8b86dtzwuT7LqBA,Sun's Kitchen,4300 Steeles Ave E,Markham,ON,3.5
0M3KCmdY-_xlIu5vEqVq4A,Wonton Chai Noodle,"2890 Major Mackenzie DriveE, Unit 2",Markham,ON,4
MdS6EHt2RZFpn9fQXZc9Ig,Fav Cafe and Bar,3000 Highway 7 E,Markham,ON,3
ypu32D_yjErCge-2cgga3w,Chez Maxim Oriental,1059 Boulevard Saint-Laurent,Montréal,QC,3.5
7zQejWAhY4v4LXHR6bY7dg,Yu Garden,"8750 Bayview Avenue, Unit 14\15",Richmond Hill,ON,3
R8Mw0iFenJ3nwXuZb7Ql4A,Pun Cao Tong,550 Highway 7 E,Richmond Hill,ON,3
XIX4xuzrt3IzvjX9MtHr9g,Mayflower Chinese Food,1500 Royal York Road,Etobicoke,ON,3.5
yKuAM6kL5sSKtfoe9a3GpQ,Made In China,371 Yonge Street,Toronto,ON,3
wgAPiE2YllXAYOHPWPGc_w,Kam Han,103-12445 Lake Fraser Drive SE,Calgary,AB,3
NPiVx-WKsuOEl1v0eWdxYg,Sichuan Landscape Chinese Restaurant,416 Spadina Avenue,Toronto,ON,2.5
FSuV_LwkREet6LWpJzJxdA,Green Curry,200 Front Street W,Toronto,ON,3.5
KK7H1bVOMAJnDqMhBv2zpA,Chung Moi,2412 Eglinton Avenue E,Scarborough,ON,4
HO14ySQ5n70Z-XQCFCL1JA,Restaurant Winncie,3030 Boulevard Rome,Brossard,QC,3
UC2dfjZg8mrRh10maovQfw,Royale Fine Dining Banquet,648 Silver Star Boulevard,Toronto,ON,3.5
9g4jaW7IzcuwXg86eJbynw,Noodle Factory,1018 Rue Saint-Urbain,Montréal,QC,3.5
_HePiPCk9tmgezshWwZGOw,Regal Garden,643 Bloor Street W,Toronto,ON,4
a8fDCWlW8dRWb0QEf2vtAA,Mister Moon's Chinese Food,13311 Yonge Street,Richmond Hill,ON,2.5
Mn8PTuxCUu1A2_RlwXv3kw,Vintage Garden,1038 McNicoll Avenue,Toronto,ON,4
TQ5uHmIZmcXBBYOR8pvH-Q,Happy Panda Buffet,2692 Eglinton Avenue E,Scarborough,ON,2.5
6PdHFAW72p0sSrMCX0mmbw,Noodle Fans,61-1177 Central Parkway W,Mississauga,ON,3.5
SnqzOHp_COcrQbNsuPuHwg,Taste of Hakka,"3737 Major Mackenzie Drive, Unit 104",Vaughan,ON,3.5
ZOAid_xX3q85wAkBWtFDPg,Northwestern Chinese Cuisine,"8333 Kennedy Road, Unit 1077",Markham,ON,3.5
zgQHtqX0gqMw1nlBZl2VnQ,Momofuku Noodle Bar,"190 University Avenue, Ground Floor",Toronto,ON,3
xdfGzrJ1mx3mBx6m14Ebhw,Goldstone Noodle Restaurant,266 Spadina Avenue,Toronto,ON,3
A1ailXV5E0e9RobODEJ2BQ,Tong Ha Supreme BBQ,633 Silver Star Boulevard,Toronto,ON,4
Vp27tfpa318kEz_PwglbMA,Omni Palace Noodle House,235 Consumers Road,Toronto,ON,3.5
KpK9IDybfThL_sR0zF5t4Q,Super Taste Chinese Cuisine,4465 Sheppard Ave E,Scarborough,ON,3.5
g7bVip6ncXJC5xzkQMjohQ,Fickle,507 Yonge Street,Toronto,ON,2.5
rsQAS-k7GldsJm7UAtVyYA,Pho Con Bo,1625 Wilson Avenue,North York,ON,4
TtBNeqXSRh37VD-pW_VbAw,South China Noodles Delight,3380 Midland Avenue,Toronto,ON,4
aCQbOhehLeej31x6EMY5eQ,Spring Rolls,40 Dundas Street  W,Toronto,ON,2.5
C8Ehjy_oDzYcy3-wf32Y4A,Mekong River,5468 Dundas Street W,Toronto,ON,4
wg-1uNV3xHrjWEmULlAFPg,Trilogie,8521 Boulevard Saint-Laurent,Montréal,QC,4
Mksyt1TZQ-7vzCZjeuzfAg,CASA manila Restaurant,"879 York Mills Road, Unit 1",Toronto,ON,3
HSz7sKZBjJkishjxqUvOMQ,Billy Bakery & Cafe,"9665 Bayview Avenue, Unit 16",Richmond Hill,ON,3
E1WG9lbypCMKlKhAjzWRsQ,520 BBQ House,"3290 Midland Avenue, Unit 1",Toronto,ON,3
tBDkO-vfXrXMnLJu2sF0Hw,Sichuan Ren,5195 Yonge Street,Toronto,ON,2
heLF99lVDRf2Z-1kCWpHdQ,Ding-Ho Chinese Food,2873 Lawrence Avenue E,Scarborough,ON,2.5
baY3pCVhwAKyWFXagiOCNw,Sometime Restaurant,41 Baldwin Street,Toronto,ON,2.5
djVzd-9vZWisUKYDnn1TWA,Eden Chinese Food,1025 Coxwell Ave,East York,ON,2
udKD_WVoQZYww1sDYdebPw,Golden Wok Restaurant,120 Eringate Drive,Etobicoke,ON,2.5
mM5XynUk82upOm43mIJFHw,Royal Jade,"2100 Steeles Avenue W, Unit 1",Vaughan,ON,4.5
tpmMELSsUxS2x1FdM6k9nQ,Wu's Garden Buffet,3560 Victoria Park Avenue,Toronto,ON,2.5
ZoqJ-XGIK1bYb1fWgQzPAw,Long Zu Bbq,"888 Dundas Street E, Unit A2",Mississauga,ON,3
CZK8pOfcrG7QhhZTfeis8g,Yang's Chinese Cuisine,"8432 Leslie Street, Unit 110",Thornhill,ON,2.5
0vjgAYQ-2mSs51_S75rOQQ,Star Walk Buffet,648 Silver Star Blvd,Scarborough,ON,3
NF6di6YcQxN0rDAleE7SyQ,Ten Ren's Tea,"111 Times Avenue, Unit 101",Thornhill,ON,3.5
CanfdSFEs_o_h9SBvxyXlg,Duck,444 Yonge St,Toronto,ON,3.5
o7fdfZeYiSIy1gfTZeDu2A,Garlic Onion,10755 Leslie St,Richmond Hill,ON,3
YTMYCiBb_-sykowc05d3ug,Snow Palace,45 Crowfoot Rise NW,Calgary,AB,4
6OhahrmtLGmkUdPfaMck0A,Ding Tai Fung,"175 Commander Boulevard, Unit 1",Toronto,ON,3.5
s2gO3yd3yef3ws0OtgZ_TQ,FootBar,"550 Highway 7 E, Suite 32A",Richmond Hill,ON,4.5
Cs8BaiKkyNU6mzxq9nTsmg,Congee Queen,"5308 Highway 7, Suite 5 & 6",Markham,ON,3.5
2jkJ7odjlDIvDqJf2dwzaA,New East Garden,"2889 St Clair E, Unit 5",Toronto,ON,3
88RkIuXwJeDzfzSu9xsyzw,Asian Legend,125 Ravel Road,North York,ON,3.5
qSzICKCd041EdjjGNgMYrQ,Crown Jewel Fine Dining,325 Bamburgh Circle,Scarborough,ON,3
3l_rMuRs97IKEA1DCZokOA,Best Friend Restaurant,888 Dundas Street E,Mississauga,ON,3
ABRgXNwdOX_JyqChNr8IYw,Swatow Restaurant,309 Spadina Avenue,Toronto,ON,4
UscHTL4dosXCsya15keQqQ,Spicy & Sweet,645 Saint Clair Avenue W,Toronto,ON,2.5
eNFubUPJR7yIQah-NxZN_g,Yu Seafood,270 W Beaver Creek Rd,Richmond Hill,ON,3
PRUhSfe7ihf3nLcihudsuQ,D & R Wing's Restaurant,325 Bamburgh Cir,Scarborough,ON,3
vYbpodi9utup_njMK5PAfw,Nudo,1055 Boulevard Saint-Laurent,Montréal,QC,4
UglIW3RciYxD701IaiDn8A,Toi Shan Restaurant,3819 Bow Trail SW,Calgary,AB,4
8pBx1vlLXHv2aCiTUWz04w,Wonton King,7070 11 Street SE,Calgary,AB,3
1Cylq9rdQ0JUgXsvvGtDBA,Golden Regency Restaurant,4300 Avenue Steeles E,Markham,ON,3
HAqFrpN8ukzFZuSgTvLijw,Faley Restaurant,42 Rexdale Boulevard,Rexdale,ON,3.5
4WmI1fnjvfI5OyV1B6emAQ,New Choice Restaurant,324 Highway 7 E,Richmond Hill,ON,3.5
9xPK9u_AGM1sxoG2CU9psA,Golden Wok Chinese Restaurant,94 Halsey Avenue,Toronto,ON,3.5
y5OFXka4tt7zHQB6KkFYjQ,Lanzhou Hand Pulled Noodle,8362 Kennedy Road,Markham,ON,2
j7nrPN8fuIrRXnZZvT-i1g,Zuì Là,"115 Times Avenue, unit B2-3",Markham,ON,3
I1AAcPjqCB6iD5aQcm6kjg,Golden Inn Restaurant,107A 2nd Ave SE,Calgary,AB,3.5
zUHz-rUIR7FSvmP7bbemsA,Bayview Kitchen,815 Major MacKenzie Dr E,Richmond Hill,ON,3.5
69opA0U-zaMsIOqyavMq2g,Beef Noodle King,11 Fairburn Drive,Markham,ON,1.5
iJziJyLGEbcgTw79t5a-hw,Hot Star Large Fried Chicken,5525 Yonge Street,Toronto,ON,3.5
5XX1w4WbwSlrACQ5vKuLDw,Pho Saigon Viet-Nam,1053 Boulevard Saint-Laurent,Montréal,QC,4
bHnHcNkORD898OpPq4L5vA,Lei Yue Mun Steam Hot Pot,"240 Alton Towers Circle, Unit 110",Toronto,ON,3.5
8MXjK1lhVRhU3yGCUv9qsA,Mean Bao,"275 Dundas Street W, Suite 19",Toronto,ON,3.5
Ly48L1qSRdLpCSWcs_DWIw,Phoenix Restaurant,7155 Woodbine Avenue,Markham,ON,3
8Fsg2BdHy1e0Pa_TfK58iw,Chi Star House,"9021 Leslie Street, Unit 5-6",Richmond Hill,ON,3
FnRLbAYaQTYQEXHuUTmwMA,Hot Point Fusion Cafe,4340 Macleod Trail SW,Calgary,AB,2.5
7zeopyMwmDrKSJ1RD1UU7w,Mandarin,2206 Eglinton Avenue E,Scarborough,ON,3.5
q80WmfxmifLBdB8_rPYu1w,Fook Hing Restaurant,"499 Ray Lawson Boulevard, Unit 26",Brampton,ON,3.5
CfYZJ81nL6-6fFqS8OMR9Q,Tropical Nights Restaurant & Lounge,1154 Morningside Avenue,Toronto,ON,3
Cbvx1IxPniwo_Ybk4CdIBQ,Tao Tea Leaf,934 Yonge St,Toronto,ON,4.5
teDbCTDdgICtC-pSTzCBAA,DM Chicken,"3250 Midland Avenue, Unit G110 & G111",Toronto,ON,3
ctTiEiUTY_FvnZ0ovBeZWQ,Ho Ga Oriental Cuisine,121 King Street W,Toronto,ON,4
GoOkCxPFM5i5lxHgFQMj1w,Asian Legend,900 Don Mills Road,Toronto,ON,3
S-RaYhvlDg8rgEOxaFeLHw,Peking Express,217 Parliament Street,Toronto,ON,3
g1UVmCOhQDY7TGSZ2rRT_w,Congee Queen,"3850 Sheppard Avenue E, Unit 425",Toronto,ON,3.5
kuvBnJc3bllm2xpuleezIw,China BBQ,"633 Silver Star Boulevard, 110&111",Toronto,ON,3.5
fojiPcgWlM-FJTxZlz4Idg,Mandarin Restaurant - North York,1027 Finch Avenue W,North York,ON,3
CY3N_T_35gqOXkwQbSeSTA,Hong Fatt B-B-Q,443 Dundas Street W,Toronto,ON,3.5
WKayXylpXcAEReoqgNK3tA,The Avenue Restaurant & Lounge,"1085 Bellamy Road N, Unit 4",Scarborough,ON,4
cxe6D9wp3NvQ39Eu9-hZpA,Noodlebox,9 Heritage Gate SE,Calgary,AB,4
yPR8Bh55-9NXmooZS7lrLA,Royal Congee Chinese Cuisine,"4 Greystone Walk Drive, Unit 2",Toronto,ON,4
CPcy22Hd2F7z0EKG66FMRA,The Old House,3 Glen Watford Drive,Toronto,ON,3.5
NaO8109RYqscYu8fLzURsQ,Restaurant Kam DO,971 Decarie Boul,Saint-Laurent,QC,3
2cxAfdLTS7EdxebbBVGuGw,Yummy Vietnamese Cuisine,"3700 Midland Avenue, Unit 108",Scarborough,ON,2.5
jCzrbfboRc3D-9_Gr0Wm9w,SongCook's,"72 Steeles Avenue W, Unit 6",Vaughan,ON,4
lEbOeImbAcgV2Jve4DgC0w,Gee Gong Restaurant,206C Centre Street SE,Calgary,AB,4.5
osvcl7Fh_J5VwUikh5Vskg,City Hollywood Cafe,4372 Steeles Avenue E,Markham,ON,3
F-AYOq1xIY2u_qmWUG5VBw,Hakka Ren,"4555 Hurontario Street, Unit C2",Mississauga,ON,3.5
otKF8cBMSC0kARaBGLMHtg,New Wok New Wok,1 Bass Pro Mills Drive,Concord,ON,2
JRRduMZI2aU3UCjfNEQURA,Qing Hua Chinatown,1019 St Laurent Boulevard,Montréal,QC,3.5
5yhUr1Cv21bOL6ZkE5IdCQ,Ho Won Restaurant,115 2 Avenue South E,Calgary,AB,3.5
_W1ke2wRSE058_IjH2aARA,Hundred Taste,"18025 Yonge Street, Unit 12",Newmarket,ON,4.5
zkU-WMio8g6dpRJ2Y2xqvQ,Elegance Chinese Cuisine & Banquet,7130 Warden Avenue,Markham,ON,3.5
AgumeejSSVoJ0Bdr5Iguww,Super Noodle Express,358 Spadina Avenue,Toronto,ON,3.5
9-_7jOcLec5-p_gGz-OGCw,Magic Bowl,1215 Lake Sylvan Drive SE,Calgary,AB,3.5
HOEQwbJcy1E47Vz3vU8vQw,Calgary Court Restaurant,119 2 Ave SE,Calgary,AB,4
7CHr-klnXenyow0H8b2Cyg,The Bowl Kee Restaurant,8360 Kennedy Road,Markham,ON,3.5
9DIbfGYvKnEetNA8ntZoLg,Lotus Bleu,4847 Rue de Verdun,Verdun,QC,4
Qme4ZWzZEdZUwnpo-sPPIw,Noodle Bowl,348 Bloor St W,Toronto,ON,2
Veh0kB2ErSaKsH5v6o7nwQ,Chopsticks House,6B Wellesley Street W,Toronto,ON,3.5
ge7hMHBENM8AFVf-bBmIQg,Ginger Beef Peking House,3802 Brentwood R NW,Calgary,AB,2
dG8-YAgrw5HS1hgdVRPHpA,Cynthia's Chinese Restaurant,2460 Neyagawa Blvd,Oakville,ON,3
AjcOXSV1ECKja4JqY3UIXg,Mandarin Restaurant - Mississauga,87 Matheson Boulevard E,Mississauga,ON,3.5
7Ry-hEfZwaDXe8u-n6v15A,Shanghai Dim Sum,"330 Highway 7 E, Unit 108",Richmond Hill,ON,3.5
dnNjNkcYSjFudOLcOFkxlg,Cafe Cogo,"8261 Woodbine Avenue, Unit 8",Markham,ON,2.5
o5t33JVLpZWf269AEPB95Q,Greens Vegetarian Restaurant,638 Dundas Street W,Toronto,ON,3.5
odhwxNT5Y1qWB8v_rdmS6Q,Ginger And Onion Cuisine,"240 Alton Towers Circle, Unit A7",Toronto,ON,4
6t7U64hS_cBZtVKSP-q5Ww,Lee Kitchen,"T1 International Gate E73, 3111 Convair Drive",Mississauga,ON,2
7KKugTC6WXZpypifkf9i7Q,Tangerine Asian Cuisine,"2058 Ellesmere Road, Unit 1",Scarborough,ON,3.5
0-jZq2P4eN7fRdt4Ls1QZQ,Ming's Restaurant,8390 Kennedy Road,Markham,ON,3
Xqs8-K4tPcGw9ACMtHwCAA,Pho Basil,6294 Main Street,Stouffville,ON,3.5
JG_yW_DTE2F-sPtYiyO8zg,Szechuan Restaurant,320 16 Avenue NW,Calgary,AB,4
9q0qW2sbI147hAaUVfVUqQ,Richlane Chinese Cuisine,9425 Leslie Street,Richmond Hill,ON,3
INnZ6bYoIN2M7bcP7Cb3bw,Empire Wok,970 Southdown Road,Mississauga,ON,3
Kxop0nGA-BUrwYD4EGhyPA,Chinese Traditional Buns,536 Dundas Street W,Toronto,ON,3.5
--6MefnULPED_I942VcFNA,John's Chinese BBQ Restaurant,"328 Highway 7 E, Chalmers Gate 11, Unit 10",Richmond Hill,ON,3
RlNmDWJ0kkEWXW7yORJZVw,Congee Wong,10 Ravel Road,North York,ON,4
icTMQrn3BYeSfBrxQZN6Bg,Gold Diamond Chinese Restaurant,346 Spadina Avenue,Toronto,ON,3
eLExQY6_KOYaayapWNp5IQ,NCE BBQ,"180 Steeles Avenue W, Unit 20A",Vaughan,ON,3.5
Kw06PxDkF8gNMVWntmBKTw,Wonton Chai Noodle,4400 Sheppard Avenue E,Scarborough,ON,4
0Mhw1lD_Zwsv4Vo6oQrPWA,Wah Too,58 Centre Avenue,Toronto,ON,3.5
BevY0RqrIxHOgfd8l_UWSQ,OMG Restaurant & Lounge,4033 Gordon Baker Road,Scarborough,ON,2.5
pofDmHoIsdvPcSKzb2iMag,Sky Dragon Chinese Restaurant,280 Spadina Avenue,Toronto,ON,2.5
VtDEh7GakYMBHNAw_PVjZg,King's Chinese Food,1050 17 Avenue SW,Calgary,AB,2.5
sQFpfRs1Flcw3evCdI2wpA,Asian Bowl,271 Yonge Street,Toronto,ON,3.5
I4Ya4liVt_60LUKDo2Xceg,Tai Pan,"1518 Center Street NE, Suite 171",Calgary,AB,3.5
x9SL1nCaUYM4JP91UrVkxQ,Maple Yip Seafood Restaurant,4227 Sheppard Avenue E,Scarborough,ON,3.5
r2qLNZaYTZKjvVXfXB1BLQ,The Bowl Noodle Bar,"633 Silver Star Blvd, Unit 110 & 111",Toronto,ON,3
wWry6ceFOu0pSmzPpDJQcA,A Xiang,"3250 Midland Avenue, Suite G106",Toronto,ON,3.5
NdpvGGF4cLrdnA6ydSZz3g,Morals Village,"8333 Kennedy Road, Unit 1073",Markham,ON,3
dPVCSAu8xVIDXD-C3s6c5Q,Luxurban Kitchen,8380 Kennedy Road,Markham,ON,4
Fl3OriheCTatMZMlNdaCnQ,Jin's Mi-Fen,5515 Yonge Street,Toronto,ON,4
0PM5oFKO29sZmL5efmHxug,Chinese Dumpling House,112-3636 Steeles Avenue E,Markham,ON,3.5
L_JIwCB8OeZLiHWg6VTydA,Food Kingdom,4675 Steeles Avenue E,Toronto,ON,2.5
b7wUWVV01xaa7E0FUNMDiw,DaiLo,503 College Street,Toronto,ON,4
TYvyrN4fGTBUx4EncK2LUQ,Andy's Fish And Chips,3341 Markham Road,Toronto,ON,2.5
c7wwhjj0kmmDvEssl6qJ0Q,Bashu Sichuan Cuisine,4771 Steeles Avenue E,Toronto,ON,3.5
7UCj5fj-aETTn3johW1LRw,Hakka Flavours,"2880 Queen Street E, Unit 13",Brampton,ON,4
4IrX-f_4TqmrKhb7egiZag,Asian Legend,505 Highway 7  E,Thornhill,ON,3
A5lD3y2eREchEdMcvWPXBA,Yin Ji Chang Fen,"7010 Warden Avenue, Unit 17-18",Markham,ON,4
YI4MTduy3fhKNtn2piOyow,Primary Taste Yunan Noodle,109A Ravel Road,Toronto,ON,3
YmX3UDKy4CeFQ7guNlrw4w,Red Lotus,"1177 Central Parkway W, Unit 11",Mississauga,ON,3.5
dN3-yXUI6ybiLhO-lF5oQg,Tin Tin Congee Chinese Restaurant,"4205 Keele Street, Unit 7",Toronto,ON,3
Fu5rL-dPs-VNW0k315xMbw,Fantasy Eatery,"10909 Yonge Street, Suite 16",Richmond Hill,ON,3.5
dL3gqcsFrhtN2uvrDupl5A,Dumpling Lab,10-303 Centre Street SW,Calgary,AB,3.5
f-ookZOX4pBNldaOHMkJ4A,Hong Shing Chinese Restaurant,195 Dundas Street W,Toronto,ON,3
dVMP0_oELc7hf77NYCgudg,Pearl,"Bayview Village Shopping Centre, 2901 Bayview Avenue, Unit A20",North York,ON,3
QNjgoQsJyEv07XSNumolmw,Dragon House,"2530 Sixth Line, Unit 13",Oakville,ON,3
xFSfbErYKKjKU5su_kfvFA,WB Chinese Cooking,1883 NcNicoll Avenue,Scarborough,ON,2.5
gson5zEUqpFjrRnz7vJu0g,Papa Chang's Take Out and Catering,"431 Alden Rd, Unit 2",Markham,ON,3.5
KMA1sN-RlOiSEi_nmH26Sw,Sugar Marmalade,1228 Rue Bishop,Montréal,QC,2.5
eh9e2wfsXNRa4BgVSXUu7g,Hai Tang Bakery & Cafe,"7220 Kennedy Road, Suite 6",Markham,ON,3.5
YWrrjZ7KdYwN_pUNbLfTCw,Fortune Dragon,6085 Creditview Road,Mississauga,ON,2.5
bsjBLLHR4TMVR5eAeLAI9w,China Town Kim Fung,"1111 Rue Saint-Urbain, Suite M05",Montréal,QC,3.5
Kwc1AaV_HU8x1M2fVH4qwA,Forever Good Asian Cuisine,16756 McKenzie Lake Boulaverd SE,Calgary,AB,3.5
ax4ztJvW28xgGvI0OPqGcQ,New City Restaurant,8392 Kennedy Road,Markham,ON,4
5PcW2QipC23t_g71rdCCcw,Fok Yuan Seafood Restaurant,3833 Midland Avenue,Scarborough,ON,3.5
afpXsZF7aYEOYAZpVbOvsQ,Chicha Restaurant,5100 Sherbrooke W,Montréal,QC,3.5
zUSmxRfIcuTGSR630qv9zQ,House of Pepper,1G-1550 South Gateway Road,Mississauga,ON,3
la4mM0mSexjkOLe1goXJPg,Hotopia Sichuan Cuisine,25 Spring Garden Avenue,Toronto,ON,3
9Auncrq-xGueTzgkGO1AkA,E Pan Chinese Cuisine,369 Spadina Avenue,Toronto,ON,3
vTlIUtYXdPxCk6UB746w8w,Utopia Dream Cafe,"7170  Warden Avenue, Unit 26-27",Markham,ON,2.5
haMEAD0sGUUwfWpzSimC2w,303 Fusion Kitchen,4413 17th Avenue SE,Calgary,AB,4
RJx_V39W3KGO1ORr99NCBw,Mr Roc's Crawfish,416 Spadina Avenue,Toronto,ON,2
VW33YWpe_zPGDEHN0cNQfQ,Power King Restaurant,8360 Kennedy Road,Markham,ON,3
OBW5Yw9LVQwe2Bem5oM7ng,Rouge,6000 Boulevard Rome,Brossard,QC,3.5
HA9VtwOCvBEYqRxuJfa6Xg,Emperor Hotpot,"7077 Kennedy Road, Unit 110",Markham,ON,2.5
9LNs7rIaRngiI57TEfSYiQ,I Love BBQ,6028 Yonge Street,Toronto,ON,3
adfELKOWudmET4s_yZ68CQ,Han Shi Fang,"3250 Midland Avenue, Unit G101",Toronto,ON,3
UkpkgsNWiurnsNRkDzevmg,The Fritter King,"Golden Square Centre, 1177 Central Parkway W, Suite 9",Mississauga,ON,3.5
Y3Mwhwj3TmF7ka552_sY_A,General Thai Chinese Cuisine & Vegetarian,15531 Yonge Street,Aurora,ON,4.5
OZF7EM-W-2-V0LQOYSYhBA,Lin Garden Restaurant,1806 Pharmacy Avenue,Scarborough,ON,3
vRuD9awneiGqZgwYPUjEGA,King Asian Restaurant,2500 Hurontario Street,Mississauga,ON,2.5
yU5IGuiwQq9QeIHF8M75WQ,Ten Ren's Tea,9570 Mccowan Road,Markham,ON,2.5
td9FZybutwNG7DgocHCiXA,Lai Wah Heen,108 Chestnut Street,Toronto,ON,3.5
VvSmE1NnTjnaTPHT0WrCaQ,King's Café,192 Augusta Avenue,Toronto,ON,4
2zmsElyBgX5MT7dWoxsQlA,Paul Wong's Fine Chinese Cuisine,376 Kingston Road,Pickering,ON,2.5
8MdMBYTVavXF-smJapxrQA,Golden Horse Restaurant,"1480 Major Mackenzie Drive E, Unit C7-C8",Richmond Hill,ON,3
9q8JSsHC5lR6Hh16W_5ggg,Salt and Pepper,"35 Brunel Road, Unit  4",Mississauga,ON,2.5
8ySvFNHBGHnVaQ3XwOuFqg,Tacos Baos,914 Bloor Street W,Toronto,ON,4
WqXrmUVy5Ay3Scn4GPM9Ug,The Borough,1352 Danforth Avenue,Toronto,ON,4
dsVHp2o1mU6BT7sHJkViOA,New Dynasty Restaurant,150 Crowfoot Crescent NW,Calgary,AB,2.5
spDZkD6cp0JUUm6ghIWHzA,Kitchen M,8515 McCowan Road,Markham,ON,3
LJEoHxM8wow4nSaObqXzSg,Noodle Star,9255 Woodbine Avenue,Markham,ON,3
xCgHUDW-rMrqDLN7GMQpyQ,Restaurant Yi Pin Xiang,735 boul Décarie,Saint-Laurent,QC,4
TA1Q7RWVzMigi5X3FAmctw,Asian Garden Hakka Restaurant,883 16th Avenue,Richmond Hill,ON,3.5
lTIt-3zKyluCPFwdu78JSA,B & B Cafe Restaurant,50 Bur Oak Avenue,Markham,ON,3
7T3WU-Up01pgCeygbc_K-A,Dagu Rice Noodle-Downtown,115 Dundas Street W,Toronto,ON,3
5VOqWjRXUPc7b1A_NSI9mQ,Spicy Garden,"4810 Sheppard Avenue E, Unit 220",Scarborough,ON,3.5
dJnF_GUWdoX3tUucpKbYMg,New Da Fu Seafood Cuisine 新大福海鮮酒樓,"5651 Steeles Avenue E, Unit 1-3",Toronto,ON,2.5
sXKDj1yjfWkwhx5AxrgdBw,Yummy Zone,895 Bay Street,Toronto,ON,3.5
tX1fI1TgkvPQNYvwABea0w,Bubble Republic Tea House,4555 Hurontario Street,Mississauga,ON,3
Hrbwae-MS_7JlS27uoigIA,New Fortune Stone,7010 Warden Avenue,Markham,ON,3.5
hq10TdILrwtTcAESKY251Q,Nirvana the Flavours of India,"35 Brunel Road, Unit 5",Mississauga,ON,3
fzHBvd0HZm1yB3UIMqZ3bA,Ding Tai Fung,"3235 Highway 7 E, Suite 18B",Markham,ON,3.5
DgQOqU9OOHkb7xzG9Aq0fw,D&D Thai Fusion,"670 Highway 7 E, Unit 12",Richmond Hill,ON,3.5
YfeTH4jtz_gpWz0QRYJFnQ,Sugar Marmalade,"3255 Highway 7, Unit 19-20",Markham,ON,3.5
Cy5VGp4Qhq6AI3Y9ukR2sA,Tea Shop 168,5193 Yonge Street,North York,ON,2.5
wh2o1CPduEtg-wFCuJlQKQ,Kim Hour,7682 Boulevard Saint-Michel,Montréal,QC,3.5
47WDyaBzlYK24wY1m_XnsA,Congee Phoenix Cuisine,2111 Sheppard Avenue E,Toronto,ON,3
R4EhR8xhONLFqqI6ZnzNWw,Dumpling Restaurant,4385 Sheppard Avenue E,Scarborough,ON,3.5
wvCDmaEIFTCruexTLn3jXA,Dessert Kitchen,"3623 Highway 7 E, Unit 106, Liberty Square",Markham,ON,3.5
HawJbjbA70EtOOJFzMZoSA,Mega Street Food Complex,5629 Yonge Street,Toronto,ON,3.5
UPiwhHLu9xr-82QMKeURqg,Lemongrass Kitchen,1550 S Gateway Road,Mississauga,ON,3.5
IWv1KToYjdiMZTTQJhH5Xw,Papa Jackie,4745 Boulevard Grande Allée,Brossard,QC,3.5
Ph_VJSwL3-6G4C_lgRgEJQ,K & B Noodle House,806 Center Street NE,Calgary,AB,3.5
zTJg9_VFyXiQQ0PegucaJg,Golden House,1280 Yonge St,Toronto,ON,3.5
gOhiq0tL76I9bXMDWWsL5Q,Shanghai House Chinese Restaurant,1014 Burnhamthorpe Road E,Mississauga,ON,3.5
uUvnimNxg15Ds9r0SC3oMg,Tasty BBQ Seafood Restaurant,"3555 Don Mills Road, Unit 11",Toronto,ON,3
dltDW0fS4HzxZ0A7PDT5jg,JAM House Seafood Restaurant,"1425 Dundas Street E, Suite 3",Mississauga,ON,4
8RUrvxlOOLkGJYLgCXJ-ig,Vic's Hong Kong Style Café,100 3 Ave SE,Calgary,AB,3
SXAXzOwp0I2wiA1V3iMtbg,Red Mango,5 Lesmill Road,Toronto,ON,3.5
oWWLfYxmUpahdF-5FexnpA,Xin Xin BBQ Restaurant,1177 Central Parkway W,Mississauga,ON,3
N97-DBkCFBy69maCMkUG1A,Ten Mile Aroma,428 Dundas Street W,Toronto,ON,2.5
s_Pob8TopJ3htux7mWnMIw,Robo Sushi,9-865 York mills rd,Toronto,ON,3
w57jrfwJyRBzqZq0Sf5zxQ,Bubblemania Cafe,455 16th Avenue NE,Calgary,AB,3.5
9nMoCP27LfPGo2Yu-6z1bg,Yunshang Rice Noodle House - Warden,"7060 Warden Avenue, Unit C1-1A",Markham,ON,3.5
P7ZzfO3zOmF5y82RBiJHmg,China Cottage,"80 Ellesmere Road, Unit 11",Scarborough,ON,3.5
AWHNeK6i4SN8zpsfUrRXJA,Wing's Chinese House Take Out,5720 Silver Springs Blvd NW,Calgary,AB,4
5oV7oSbo9h4nzWxNfoLc4A,K-Wok,730 Yonge Street,Toronto,ON,3.5
9nv9UKIB2p5i8_8Ro3-gvA,Dagu Rice Noodle,"505 Highway 7, Unit 50",Thornhill,ON,3.5
MWJg4LxOm9c7VGi1KrL5Ug,Ming City Restaurant & Bar,1662 Eglinton Avenue W,York,ON,3
L_tieGcFMQVSmk7XiA093A,Chine Hot Pot & Noodles,"327 Spadina Avenue, Unit A",Toronto,ON,4
fGurvC5BdOfd5MIuLUQYVA,Dumpling House Restaurant,328 Spadina Avenue,Toronto,ON,3.5
kD05qsPROIFoEhgQIp_Vig,Gohyang Restaurant,5096 Dundas Street W,Toronto,ON,4
4FEb2SzmU_l7SCQAbvW5Hg,Azyun Restaurant,"144 Main Street N, Unit 17",Markham,ON,4
sr0rCMn-XtKATvl9adYQxA,Double Ming Chinese Dessert,4186 Finch Avenue E,Scarborough,ON,3.5
zrJDRWzP0P4wTFq8-N_mzA,100 Degrees Hot Pot,650 Highway 7 E,Richmond Hill,ON,2.5
ze-xCiBLB-QSfNXHiPY5Qw,L's Chinese Eatery,1734 Lawrence Avenue E,Toronto,ON,4
IHX9FiUyNxxGFgFS5rTOxQ,Papillon Bleu,200 Rue Saint-Jacques,Montréal,QC,4
PZ08ZO0-t2r1qA5WDd6wfA,Honey-Bee Restaurant,2028 Queen Street E,Toronto,ON,2
PAJlmByrU8zAB3WsXxA30Q,Legend Chinese Restaurant,5 Glen Cameron Road,Thornhill,ON,3.5
IdVoDto0eqtzzH5B4bpvsA,Little House HK cafe,4471 Highway 7 E,Markham,ON,3
2hekiyi_LtQCO2fJcObQkg,Good Pho You,17-235 Bayly Street W,Ajax,ON,4.5
I1pLg_ZjLMcie3g58I_GZA,Metro Square Cafe Restaurant,3636 Steeles E Avenue,Markham,ON,3
eDtxNY64sFYGjeFPJYlZ6w,Chiu Chow Boy,"3261 Kennedy Road, Unit 4-5",Scarborough,ON,3
HakulcKdPE-RaWCVF1GUKQ,Aberdeen Delicatessen,3250 Midland Avenue,Toronto,ON,2
tIE_8gjZ5aR-JW-qEGbdJQ,Patisserie La Legende,68 Rue de la Gauchetière O,Montréal,QC,3
yswKt37oj5f7o6EaOdzA_w,Le Cristal Chinois,12230 Boulevard Laurentien,Montréal,QC,3.5
jtxwnAAfwskSC_TdB0E3bg,Cygnet Hot Pot,"350 Highway 7, Unit 105",Richmond Hill,ON,3
KVGdRDCXOPbcDH_3HC1jfA,Grand Chinese Cuisine,"International Plaza Hotel, 655 Dixon Road",Etobicoke,ON,3.5
N6x7JkfDLqLoO4WUHetiEA,Shanghai Classic Restaurant,8282 Centre St NE,Calgary,AB,3.5
IDPbmH1OIhEbb9OIQyDJgw,Gourmet Vegetarian Restaurant,"280 W Beaver Creek Road, Suite 22-25",Richmond Hill,ON,3.5
bJQsVvEdi810vdpQsq3IXQ,Chinese Village Oriental & Western,512 6 Street  SW,Calgary,AB,3
ZhoIDHg1tDSgY2FJHYwX1Q,Citi Wok,"446 Hollandview Trail, Unit 2",Aurora,ON,3.5
VL5kkH-RQ9dx_wjvLk64yw,Wok Box,"855 Taunton Road E, Unit 4",Oshawa,ON,2.5
irZlUo2wdBiQjryQhU_rSw,Tampopo,4449 Rue De Mentana,Montréal,QC,3
LRPp4mqZ0DLq9Vx-E2MnxA,Chez Mein,3754 Boulevard Saint-Laurent,Montréal,QC,4
wY4CE59lES6SHsaF1RYDBg,Kam Han Szechuan House North,2318 Spiller Road SE,Calgary,AB,3.5
VYByx4yXYiZDeiaVVus7HQ,Mon ChiCha Bistro,1396 Boulevard de Maisonneuve O,Montréal,QC,3
sp0kp2ZWmO0a6CcK-SGd-Q,Mon Nan,43 Rue De La Gauchetiere E,Montréal,QC,3.5
FUmy99Q3EZByy2GcCJlxyg,Cuisine AuntDai,5557A Cote-des-Neiges,Montréal,QC,4
G01ln4hwSJv0C_aQ0RVgWQ,J & S Asian Cuisine,"15440 Bayview Avenue, Unit B03",Aurora,ON,4
Q3UkgxNNInsPcUFhsQFcrg,Kum Hong BBQ Restaurant,420 Highway 7 E,Richmond Hill,ON,4
Q_Iia5C2quTUVfE5_8jObw,The Royal Chinese Restaurant,3587 Sheppard Avenue E,Toronto,ON,3.5
r4uLhd8wBRea8H8sprBLUg,Liuyishou Hotpot Downtown Toronto,254 Spadina Avenue,Toronto,ON,4
nZk009qoCNuPeDCn1hey7A,Soyummy Factory,"111 3 Avenue SE, Suite 105",Calgary,AB,4.5
h-xOELUCAqOROoBtRC6Bow,Ming's Noodles,1133 Dundas Street E,Mississauga,ON,4.5
l-2xwlocbVNu7S6NByVMMg,Eastern Treasures,2825 32 Avenue NE,Calgary,AB,2
l-nL4BmhzpZjcavooO48PQ,The Wokker Restaurant,5555 Eglinton Avenue W,Etobicoke,ON,3.5
8oNQ3pomHYT-BeWq_aSWPg,Tasty Asian Cuisine,649 Yonge Street,Toronto,ON,4
XhZlS7LbbGXo675Q4r8nFw,Holiday Inn Montreal Centreville Downtown,99 Viger Avenue W,Montreal,QC,3
8fzSmy88qLPUAmrG8Dahfw,Lar's BBQ,"17235 Leslie Street, Unit 6",Newmarket,ON,4
IjcVZywzzzaTcjZyni7GWg,King's - On The Hill,808 Edmonton Trail NE,Calgary,AB,4.5
ZDDzKXN_JXe7694zePRuTQ,Chatime - Dundas,132 Dundas Street W,Toronto,ON,4
DxbdfvNYPCyiLJDDPJK3Tg,Hakka Bro's,"3685 Keele Street, Unit 6",North York,ON,3.5
bg3YcuqVyQofTz5d4kKgug,Federick,1920 Ellesmere Road,Scarborough,ON,3
rO9X1ge-xQZInuy5HYIOIA,Two Penny,1213 1 Street SW,Calgary,AB,3.5
STzLrBgOr_-Y_cVs3t7jFw,Big Mouth Kee,280 W Beaver Creek Road,Richmond Hill,ON,3.5
Izd-To33XTMnjM19XRonhw,Amigo,"1027 Boulevard Saint-Laurent, 2e étage",Montréal,QC,4
3ot6ucvk6eG6Zgtzc2-gwg,Sandy's Restaurant,2093 Danforth Avenue,Toronto,ON,3.5
d-iIDYzH9Iw-dDjM-93EMw,Caltons Chinese Restaurant,"5010 4 Street NE, Unit 14",Calgary,AB,4
Cl0MirLvlTgDI2TQJtC7pw,Little Sheep Mongolian Hot Pot,"999 36 Street NE, Unit 100A",Calgary,AB,3
t7wcfSi4yOLXGW6FBq0W8Q,HAKKA KING,"7595  Markham Road, Suite 03",Markham,ON,3
tisVBZM6OFh1ih4x6rGtDw,Garden Gate Restaurant,2379 Queen Street E,Toronto,ON,3
taet5lzHXhUGGkPrWcfmsg,Qing Hua,1676 Avenue Lincoln,Montréal,QC,3.5
tCJjzxEcTWwdqIpIvZEP-g,Yummy House,234 Jones Avenue,Toronto,ON,4
k-zr3rReFvYWz8vNyDpJMA,TAO Canteen,9830 Markham Road,Markham,ON,3
zQ3ipTBmNFQXwwqjw6pEfg,Captain's Catch,2111 Sheppard Avenue E,Toronto,ON,3.5
EZjxRZkAvrX8k48AXQtaEg,Sugar Marmalade,"3175 Rutherford Road, Unit 30, Building G",Vaughan,ON,3
SxjNgkzAlUG-wt2rSbc2HQ,New Ho King,410 Spadina Ave,Toronto,ON,2.5
_ONkRPvpIYdCuj9u6cIPeA,Miu Garden,"4390 Steeles Avenue E, Unit B17",Markham,ON,3
9q8V8KCLbIStR-Pj3vM7qg,Chung King Garden Restaurant,7330 Yonge Street,Vaughan,ON,3
Wk2vbs-Va9Alf8cZqqAVQA,La Perle,4230 Boulevard Saint-Jean,Dollard-des-Ormeaux,QC,3
h8zFBTYBKSwDFcHuFgwpmQ,Day & Night Angus Beef Hot Pot,"9021 Leslie Street, Unit 9 - 13",Richmond Hill,ON,4
dSsgEnAatsMNDKF9T4oORQ,New Verdun,5001 Rue de Verdun,Verdun,QC,3
5GcHJvxiTrIt23gB0qMdjw,Leslie Cafe,149B Ravel Road,Toronto,ON,3
L1XHTn7S-6har9UGAPjcWQ,Papa Chang's Tea Bistro,"280 W Beaver Creek Rd, Unit 30",Richmond Hill,ON,3.5
IoUtQRoXPuDcAsfp-Q7CLQ,Yan Can Cook,3225 Highway 7,Markham,ON,3.5
3pTp_EDVffBFTUNKCOXjdw,New Dynasty Buffet Restaurant,575 28 Street SE,Calgary,AB,2.5
J_btDyZbIv0hZNjrw56zlA,New Sky Restaurant,353 Spadina Avenue,Toronto,ON,3.5
xuD16x4Jlc__QMtl-AY6Xg,Emperor Fine Chinese Cuisine,9019 Bayview Ave,Richmond Hill,ON,3
aOlDFcsNtVvAkbHRoZgJcw,Hakka Village Chinese Restaurant,144 Kennedy Road S,Brampton,ON,3.5
0gVPTer9PnXRmSjuHt-XgQ,Silver Inn Restaurant,2702 Ctr St N,Calgary,AB,3.5
QKJ95dgf9YqGuztaeRe2Lg,China China Palace,1891 Rathburn Road E,Mississauga,ON,3
lv3h7WwuxPyJNLTeWeL5LQ,Century Palace Chinese Restaurant,398 Ferrier Street,Markham,ON,2.5
qG0W_SEJElhnfvv29Zac_w,Pebble Street Restaurant,999 36 Street NE,Calgary,AB,3
xI4IId1ZXfSflFvfbAtTVQ,Golden China,6001 14th Avenue,Markham,ON,4
y3A7FES84gb85UxTTTQ_Xw,Oh Dumplings!,1065-1085 Rue Clark,Montréal,QC,3
lapNvwl_u-x_g9MlMjW1FQ,Hai Feng Chinese,1606 Eglinton Avenue W,Toronto,ON,2.5
0VtWeDkqzj9CE3MF0geWYA,Peaktop Restaurant,3235 Hwy 7,Markham,ON,2.5
y4z0iQZWN4R2Fk8SiPQU5A,Urban Hakka,3305 Yonge Street,Toronto,ON,4
BJ9GwNMo8vIgSuKc6B_mOw,Dynasty Chinese Cuisine,69 Yorkville Avenue,Toronto,ON,3
BsyNabKZJOVIHWmwUghreg,Spring Rolls,691 Yonge Street,Toronto,ON,3
OS5IyYEXgYV9_Z0iS4MkOw,Yip's Kitchen,"St. Lawrence Market, 92 Front Street E, Lower Level",Toronto,ON,4
C7oHVsJyxNGH2D9yXUB2kw,Modern Wok,145 King Street W,Toronto,ON,4
PViWXTbiRkRjZhAdH0xLxg,Cynthia's Chinese Restaurant,16715 Yonge Street,Newmarket,ON,3.5
OYfXGMEwcMKj_gty5e_Udg,Blue Ocean Cafe,8392 Kennedy Rd,Markham,ON,3
WmuoWetYC-4U2-V4taC6Wg,Yueh Tung Restaurant,126 Elizabeth Street,Toronto,ON,3.5
aO7CRy6Gi_q9PpA5uXe_OA,Green Bites Dumpling & Tea Bar,"35 Resolution Drive, Suite B10",Brampton,ON,4.5
AsgwKCJqyBqdiHdEBqeq3w,Singapore Sam's,555 11 Avenue SW,Calgary,AB,3
Go7A32yJ0eFXqE_-8Os7EQ,Mizumi Sushi Asian Cuisin,6233 Bathrust Street,Toronto,ON,3
TERNBX3fY1-oWsNfjjawsw,Grand Fortune Food Mart,4390 Steeles Ave E,Markham,ON,2
ffi1TJTShRnGh6rjuwdtsQ,Bliss Chinese Cuisine,6485 Mississauga Road N,Mississauga,ON,3.5
neNQJHi50U4z8N-XUgRNnA,China Palace Restaurant,"6219 Centre Street NW, Ste 21",Calgary,AB,4.5
Q4VYrJr_UPixyLXSnA4O2g,Everest Hakka House,2356 Lakeshore Boulevard W,Etobicoke,ON,4
yiVv6EtyjrIJ34BgB_O4vA,J'adore Hot Pot,C-7-8380 Kennedy Road,Markham,ON,3.5
bgAkl-VUhz1Vcoi5GHkMUQ,Le Ming Chuan,"8075 Boulevard Taschereau, Carrefour Pelletier",Brossard,QC,3
SZldZinCvCRE6u92q0u0cA,Spring China House,961 Eglinton Avenue W,Toronto,ON,2.5
Vs_SBEmz2dBBCrTmAR89bA,Bonavista Peking House,755 Lake Bonavista Dr SE,Calgary,AB,3
GOE85NOtCc5zmqOrzVGLXg,Golden National,3 High Street SE,Calgary,AB,3
WbQOuI7mVST8XrJotWq9fA,Kom Jug Yuen Restaurant,371 Spadina Avenue,Toronto,ON,3
MKviRVX2QxRgGS6juCEeYg,Fantasy Eatery,3320 Midland Avenue,Toronto,ON,3.5
_GwVhLhVF_NkEjdcY0TZ8w,360 Seahood,"4188 Finch Avenue E, Unit14-15",Toronto,ON,3
IIVGlLVf1oggMOOtbblrYQ,Soups et Nouilles,1871 Rue Sainte-Catherine Ouest,Montréal,QC,3
MLVBJjbgk3sLZYyxqBD4XA,Marathon Cafe,155 E Beaver Creek Road,Richmond Hill,ON,3
qGLEE1yA1bK0YdlGI-S39A,Wonton Chai Noodle,"4040 Creditview Road, Unit 22",Mississauga,ON,4
9plS24hVE2wSw1RLGNBa9Q,Rougamo & Noodles,4905A Yonge Street,Toronto,ON,3
VPcFNI-6HICR5SJM--KjNA,Bill’s Peking House,380 Canyon Meadows Drive SE,Calgary,AB,4
lkvHG6proAFP8_evKhdxKA,Chinese Bakery,433 Dundas St W,Toronto,ON,3.5
jPxlzLWHc7mkvhw3YUXuZg,Spring China House,189 Sheppard Avenue E,North York,ON,3.5
QG56Fy7JQ_9XgAwtj7fhjw,Délice Oriental,1858 Rue Sainte-Catherine O,Montréal,QC,3.5
98NaJ8FWzPuoymHfj6IIeA,Ming's Noodle Cafe,3447 Kennedy Rd,Scarborough,ON,3.5
S0Z8fKAUYTd2MKUuez-evA,Noodle To Go Chinese Food,"3068 Mayfield Road, Suite 11",Brampton,ON,4
jzY_beeQKdvA-uZsqDke2Q,Noodle Wok,600 Burnhamthorpe Rd W,Mississauga,ON,3
Y22IfhXChXoRp3vKi6QwaQ,KanBai,1110 Rue Clark,Montréal,QC,4
BwbPzuEuIN_oFmNRJIgHlg,Flaming Bull,378 Bloor Street W,Toronto,ON,3
2Q89PhkcyT9uZnQORmqMKg,House of Gourmet,484 Dundas St W,Toronto,ON,3.5
iIFcMHXGNDz8jbx_4H-xVQ,Hakka Garden Chinese Restaurant,25 Overlea Boulevard,Toronto,ON,3.5
PlJ5Tf9T4QlFQoNZf99aTg,Hakka No.1,"2 Melanie Drive, Unit 10",Brampton,ON,4
qEe0mdIax3pz3DH4RPj3sQ,Backyard Garden Restaurant,3636 Steeles Avenue E,Markham,ON,4
jyPsc5xUFpVOuuSylPkZdw,Dumplings & Szechuan Cuisine,2549 Warden Avenue,Toronto,ON,3.5
TPdaLEGufV5JnONni8u9fw,Tasty Noodle House,"3235 Highway 7 E, Unit 18A",Markham,ON,3.5
VaLnPWq6cLnK5x2wXBVOKQ,Papa George,"360 Highway 7 E, Unit 10",Richmond Hill,ON,3.5
rLyGCFULUSbLCt8J3U0_kA,Peking Man Restaurant,1110 Sheppard Aveune E,North York,ON,3
joMyW9KcBEsHJxQuAMulaQ,Roll Play,"10A Edward Street, Second Floor",Toronto,ON,3.5
fVbZptKCH2lIRS56M1zc6g,Guru's Classic Indian & Chinese Cuisine,"5955 Latimer Drive, Unit 1",Mississauga,ON,3
DDLpQjU_Ec8OoJlHmdaodg,K & K Cafe Restaurant,"420 Highway 7, Unit 26",Richmond Hill,ON,3.5
dTiofRzCI90BkVbGU8ZY2Q,The Oriental Gourmet,633 Silver Star Blvd,Scarborough,ON,4
awZx3Y1PAwhCUpt3WGZhKg,Kenny's Noodle,"4733 Steeles Avenue E, Unit 7",Scarborough,ON,3.5
ea3kF5zspg4eNmxSbZixsA,Jamie Express,4350 Av Steeles E,Markham,ON,4
r3jpH6ZuCQY3o1yBuJ67PQ,Master Mix HotPot,261 Spadina Avenue,Toronto,ON,3
AZKhBlrI5vgTBm3j9WwnbA,Bao-Shin To Go,896 Burnhamthorpe Road W,Mississauga,ON,3.5
8f9Tl2gq78wqjtrToOTo7A,Phoenix Restaurant,2900 Warden Avenue,Toronto,ON,3
NE596RKQomLvdrWiM9DYWg,Golden Jade Restaurant,633 Silver Star Blvd,Toronto,ON,3
P3wlOGHlptCaTeuCxDK8vQ,Origination Noodle,"633 Silver Star Boulevard, Unit 119",Toronto,ON,3.5
iVGeWvofA_e3G0A2Qomwhg,Kung Fu Restaurant,"4307 130th Avenue SE, Suite 27",Calgary,AB,3
UlI0TksGFiIXtcbtg2KalQ,Mi Pho Song Vu,2109 Jane Street,North York,ON,3
MbDMS-I2eHoEWR5XMZ9YxQ,Maneki Comptoir Asiat',3121 Rue Hochelaga,Montréal,QC,4
MeEvtL0DA11Vla25vix_0A,Golden Harvest Northern Chinese Restaurant,"328 Highway 7 E, Unit 18",Richmond Hill,ON,3.5
dgIrIkCBiHtAHZ86_-awFQ,Grand Lake Chinese Cuisine & Banquet,"Unit 8, 8362 Kennedy Road",Markham,ON,3
Msw1bg7KGcZ87NEAoABIJg,Masala Bhavan,"4604 37th Street SW, Suite 33A",Calgary,AB,4
RzJEqt010ycK5QtnW4t9fA,So Good Restaurant,"10 West Pearce Street, Unit 12-13",Richmond Hill,ON,3.5
A5IV0JkXIFfESdYDhFF0gA,Mom's Recipe Chicken,"888 Dundas Street  E, Unit D2-B",Mississauga,ON,4
YE1x0KHgcyVc0BNDG861tA,Mandarin Restaurant - Pickering,1725 Kingston Road,Pickering,ON,3.5
Z4MvEVylnZPW_vddQc2Ihg,Genghis Khan Mongolian Grill,"900 Don Mills Road, Unit 2",North York,ON,3.5
x7RxFtOnRXKEagcsDiwrAQ,Kam Wing,3400 Notre-Dame W,Montréal,QC,2.5
XpgtXP2e1nWslXW6-YZWuQ,Yogi Noodle,"325 Bamburgh Cir, Unit 109A",Scarborough,ON,3
kqbejhh7VmxuQkIb_EynuQ,Nouilles du Yunnan,2065b Rue Bishop,Montréal,QC,3.5
oMF1F795PpnITiNfOR1e2A,Lotus Tea House,"Fo Guang Shan Temple Of Toronto, 6525 Millcreek Drive",Mississauga,ON,4
GkY6UWWn0Fz2ehcuBp66pg,Graceful Vegetarian Restaurant,"4675 Steeles Avenue E, Suite 1R6",Toronto,ON,4
_PKXarw3GjlbwbXhjdpUMA,Tangra Villa Hakka Chinese Cuisine,"411 Manhattan Drive, Suite 3C",Markham,ON,3.5
NncsqhAElh0zykYdUULByg,HarBin Dumpling,4801 Boulevard Saint-Laurent,Montréal,QC,3.5
rXVLgV4Og3l98OTy6N2dJw,Wonton Chai Noodle,28 S Unionville Avenue,Markham,ON,4
v95ot_TNwTk1iJ5n56dR0g,Vince Seafood Restaurant & BBQ,1661 Denison Street,Markham,ON,3
6Y01DAOBtDo9BwXGW4dR7g,Luscious Desserts,493A Dundas Street W,Toronto,ON,3.5
eOvNqnu9CZDCHe26sqj7bw,Pine Tree Garden Restaurant,10 Bur Oak Avenue,Markham,ON,2.5
bbFjlDYqeZvHFfitD9nFIg,Landmark Seafood Cuisine,"3601 Victoria Park Ave, Unit 101",Scarborough,ON,3
79e4GUc_y2A5Cn3z1lNERw,Dumpling King,436 Dundas Street W,Toronto,ON,3
6Kp9W5ZvVn--6caQ73_QXg,Tsui Xiang Tsuen Restaurant,888 Dundas Street E,Mississauga,ON,4
Ih7a0qOMLFnYAec8qyq2Gg,Delights of China,2181 Bloor Street W,Toronto,ON,4
4etFlEdWOTx3WhFldxW6XA,Yunnan Steamed Fish Pot,"3280 Midland Avenue, Unit 21",Toronto,ON,3.5
5fZ4Y1gstwWJESGum9jWUQ,Dagu Rice Noodle,"1177 Central Parkway W, Ste 2",Mississauga,ON,3
8PutnU74XwbXxlzv0HAEfw,Nouilles Star,1871 Rue Sainte-Catherine Ouest,Montréal,QC,3
KV2yFTUPB2WoTMUxtX-HWQ,Eastern Sense,"200 Marycroft Avenue, Unit 9-11",Vaughan,ON,3.5
iHzgeI9ryIniOX9-AJPbcg,Mr. Six Fried Chicken,"3250 Midland Avenue, Unit G116",Toronto,ON,3
E-wETrdq1uImd6lX6x8Qxw,Little Sheep Mongolian Hot Pot,421 Dundas St W,Toronto,ON,3.5
ygM0wSHWDQ5D3KcSvT3Cjg,The Fry,"328 Highway 7 E, Unit B1",Richmond Hill,ON,3
Oj4PqiXtPTd4kZdI5aG1uw,Jade Dim Sum,2280 Dixie Road,Mississauga,ON,3.5
vWu3eAOnYLf-piMGl_W2hg,Congee Palace,"3115 Winston Churchill Boulevard, Unit 1",Mississauga,ON,3
6a27i3kNy5MCq73vEQTNOA,South Silk Road Chinese Restaurant,823 14 Street NW,Calgary,AB,4
kqqv1ZD-Gq1A03E1K6tzxg,Fine Taste Hakka Chinese Restaurant,"75 Bayly Street W, Unit 16A-B",Ajax,ON,4
oRgoOhwCex1X9j1iQ9ou3w,Crown Prince Fine Dining & Banquet,"3600 Victoria Park Avenue, Unit 1-7",Toronto,ON,3.5
1jNteKQ2JuF6Sk1SI9X23Q,P F  Chang's,10 O' Neill Road,Toronto,ON,3
WDYaPybbBHI69EVVVb62cw,Tender Trap Restaurant,580 Parliament Street,Toronto,ON,3
_xt4ZyvtgY8Xu_O6SpSB5A,Chi's Congee & Noodle House,"1177 Central Parkway W, Unit 66",Mississauga,ON,4
IzwOOLiR1r7YnAK1WR-vDw,Beijing Restaurant,3278 Midland Avenue,Toronto,ON,3.5
CDzk5ayt_e86MuNlLFvLDQ,Little Sheep Mongolian Hot Pot,50 Rue de Ia Gauchetière O,Montreal,QC,3.5
TbjAR4JMgBuPXiMUKsO9RQ,Great Khan Mongolian Grill,7131 Kennedy Road,Markham,ON,3.5
1SWHrS6JVc5yLuJtBTds-g,Mr Spicy,1701 Boulevard des Sources,Pointe-Claire,QC,4
UX1pAKQtRHX5fejaWbIy6Q,Rolling Pot,7077 Kennedy Road,Markham,ON,3
S_5s_J6Mrii2cAi4ylK30w,Yunnan Cross Bridge Rice Noodle,"19 Milliken Boulevard, Suite 3",Scarborough,ON,3.5
EQZPTDAy-lWijb0i8JpHNw,Sammi & Soupe Dumpling,1909 Rue Saint-Catherine Ouest,Montréal,QC,4
CMN2zW7c5bdXT_esaKm_YA,Dumpling King,"1126 Finch Avenue W, Unit 13",Toronto,ON,4.5
R-EGIdIgtoFzl--OudANtA,Yummy Cantonese Restaurant,4400 Sheppard Avenue E,Scarborough,ON,3.5
Axd4Ggd3H9dLAWD__UHYVQ,Easy Drink Easy Go,482 Dundas Street W,Toronto,ON,3
n72smZw1iVORdnjGfFT0FQ,Richmond Court Restaurant,"550 Highway 7 E, Building A, Unit 7-8",Richmond Hill,ON,3
GKN6OdLqCCWx_8B1KaHL1Q,Lobster King Seafood Restaurant,4919 Steeles Avenue E,Toronto,ON,3
GHxoLiZCORG_38rYV9OYGw,Noodle & More,402 Bloor Street W,Toronto,ON,4
adaYhaXJR2TeU7UGZbJ6tQ,Wonton Chai Noodle,8360 Kennedy Road,Markham,ON,4
3a3ZSTEhFNnmvBhMwW3fSA,Kimling Hakka Fusion,2173 Avenue Lawrence E,Scarborough,ON,4
7i32mNu8SRlZwLjSnV4Kpw,Asian Legend,9781 Jane Street,Vaughan,ON,3
qo9JoIB9iZxGl-KQGDzEWw,Eight Noodles,3309 Sheppard Avenue E,Toronto,ON,3
bBdBNFFyIVUwY-L3kqa3zg,Asian Legend,5188 Yonge Street,North York,ON,3.5
js0ZzxVEDAkTdczCMT1emw,Lambie Bubble Tea,"3255 Hiway 7 E, Unit 27",Markham,ON,3
zMqkXH70p-WDYj2xqR2Wuw,Wok Of Asia,6640 Finch Avenue,Toronto,ON,3.5
2KOXNZVoxpcwen_JmIQdfA,Pho Mi 99,"5955 Latimer Road, Unit 8",Mississauga,ON,4
uJEot284h2qJbrWOgfAG5w,Kroran Uyghur Cuisine,1515 Birchmount Road,Toronto,ON,4
tsUFlp2DQw7Nk2I9mRL2hg,Hot Wok,7 Progress Avenue,Toronto,ON,3.5
I9_Bf9CUGkCDtUDTCtP8Zw,Lucky Place Restaurant,108 3 Avenue SW,Calgary,AB,4
Iov02yUKZVj-Z3A3u37ExA,River Tai Restaurant,92 Harbord Street,Toronto,ON,4
LJ6tewxquGs3J4yYPyi2oQ,Zento Sushi,475 Grand Boulevard,L'Île-Perrot,QC,4
erRdoBvb4ywWky3KMjtVdg,Good Taste Casserole Rice,8390 Kennedy Road,Markham,ON,3.5
xRugkNACWUoL9RFDkW1v9g,5spice Noodle Garden,"7740 18th St SE, Unit 60",Calgary,AB,4.5
mBHYTLynxk-Ryq56QIx6cw,Dragon Palace,1850 Dundas Street E,Mississauga,ON,4
XxmFwrJk1DljL7sLXS1zrQ,1 Pot,123 3 Avenue SE,Calgary,AB,3.5
tDnqxU5TVUP3-GGH0e7-kg,Pepper Wok,"280 W Beaver Creek Rd, Unit 28",Richmond Hill,ON,3
VDdX2TGa9hNHwjzrnVSC_A,Ming Tao Xuan,"451, Rue St-Sulpice",Montréal,QC,4.5
FexomhlA5G7ipOEH3pqFkA,P F Chang's,5485 Rue des Jockeys,Montréal,QC,2.5
IbOrNwCdMTd-eicZ9B2CiA,International Plaza Hotel & Conference Centre,655 Dixon Road,Toronto,ON,2.5
g8GNA1Np_tA_41_9v1S0eQ,Lucky Lin's Restaurant,5633 Finch Avenue E,Toronto,ON,3.5
O6y47a9UtySaWg3QMx41iQ,Kam Shing Chinese Restaurant,4771 Avenue Van Horne,Montréal,QC,3.5
pAQwza9U8OLY65Q73pAnxQ,Miss Congee,"4721 Highway 7 E, Unit 5",Markham,ON,2
sqIEwNn-AG_zZ0LI8dpQ4A,Sunny Dragon Restaurant,398 Steeles Avenue W,Thornhill,ON,3.5
9Z7JJvzB_5FG27QrTiws3Q,Kowloon Dim Sum Restaurant,5 Baldwin St,Toronto,ON,3
P8Tnt4o-CruzckdhTRYD6w,Hakka Khazana,"735 Twain Avenue, Unit 5 & 6",Mississauga,ON,3.5
B3htskQo2AJ_OdCMIn0fiw,Little Sheep Mongolian Hot Pot,"7209 Blvd Taschereau, Ste 109",Brossard,QC,3.5
YwTtrKCE_9OaMe9xASCOkA,Szechuan Express,260 Yonge St,Toronto,ON,2
OlSpcJY_nXqWbdwdg4SNvA,Global Imperial Cuisine,"23 Glen Watford Drive, Suite 9",Toronto,ON,3
SZmm3wOx_fcC2rblUVewGA,New Treasure,150 Dundas Street W,Toronto,ON,3
Mkpg9S2j0ZrZc3q-VjfLsA,Congee Queen,2930 Steeles Avenue E,Thornhill,ON,3.5
CrBIsL2Aq1j8Pu5tpYJggA,Red Sail Boat Bakery,2547 Warden Ave,Scarborough,ON,3.5
N0l4hT7UCywbZ9UEZ1R9kQ,Patois Toronto,794 Dundas Street W,Toronto,ON,3.5
XC7RBm6or4mf2LyKqQfuUw,L'Orchidée de Chine,2017 Rue Peel,Montréal,QC,3.5
Hmh3MF7pifxyMPf7lLl2tA,Blossom Garden Chinese Restaurant,"85 Kingston Road, Unit 6",Ajax,ON,3
t9wNYKJz1penDhrTPOr78A,Kwan Dim Sum Express,300 Borough Drive,Toronto,ON,3
qfa4p28aOu9-VQ30mwQzUQ,Fishman Village,4500 Steeles Avenue E,Markham,ON,3
uNjoyF_qlLqOSEEYVpTkLg,Noble Seafood,530 Dundas Street W,Toronto,ON,3.5
SCoH7sKTSwIhREUPBu7BkA,Forbidden City Dim Sum & Seafood Restaurant,999 36 Street NE,Calgary,AB,3.5
8lPxiYChdJdTV24NJvOB3Q,Big Beef Bowl Hand-Pulled Noodle,8362 Kennedy Road,Markham,ON,4
sHIJktNJTTJPOGhzXMI2Fg,Restaurant Fifty Nine,"4186 Finch Avenue E, Unit 27",Toronto,ON,3
hFDFIGxTK3d5Dr4aXp3PXw,Tsui Wah,"3261 Kennedy Road, Unit 2",Scarborough,ON,3.5
8TpKY3zo6UzG3SVk6a-FRg,Congee King Restaurant,4271 Sheppard Avenue E,Scarborough,ON,3
xDnTbCZ3z2EnwHIcXYu0wA,Good Luck Chinese Restaurant,2432 Eglinton Avenue E,Scarborough,ON,4
1DkpdmcxLCRXAdEi6TdOFw,Anne's Magic Kitchen,414 Dundas Street W,Toronto,ON,3.5
9sFPbD1PUGmyg0CNdkBEew,Fortune House Restaurant,2598 Birchmount Rd,Toronto,ON,3.5
wh44YZa9OCXjV-ziZ6gjNA,Ichiban Asian All You Can Eat,4675 Steeles Avenue E,Scarborough,ON,3
Yo_cFLv1Kf92LP1JSwjDmw,Federick Chinese Restaurant Hakka Indian Cuisine,"Unit 112, 2515 Hurontario Street",Mississauga,ON,3
TsqC11FYt-Pqzg1drYoI2A,Buffet Fu Lam,3500 Boulevard Côte-Vertu,Montréal,QC,2.5
i3jZgPgXPtXbZIjv7obagQ,Szechuan Express,"First Canadian Pl, 100 King St W",Toronto,ON,2.5
hlT80WkPUW5Vby5UlC0wmg,Westown Chinese,464 Sherbourne Street,Toronto,ON,1.5
jNiZgCwZj4CNw1noxiC8PQ,Mandarin - Markham East,88 Copper Creek Drive,Markham,ON,3.5
W_nU2qtu1AEDDCgkCo0gJg,Phoenix Restaurant,1 Raymerville Dr,Markham,ON,3
asmenXg9mw5TDGX2XFnYcQ,Lucky Dragon,"325 Weston Road, Unit 10 B",Toronto,ON,3.5
K4-J1A_ZIzG2yNkee0KOaA,Keung's Delight,"7030 Warden Avenue, Unit 1",Markham,ON,3
O0zyXuEw_aojAK5ILW6WJA,New Northern Dumplings,"633 Silver Star Boulevard, Unit 120",Toronto,ON,3.5
haeyExjSiJNENQKTxTmiPQ,Faley Restaurant,62 Overlea Boulevard,Toronto,ON,3.5
9ok8nLK-8emYWbt6kwd-HA,Golden Duke Chinese Cuisine,"5284 Highway 7 E, Unit 3",Markham,ON,3.5
VU5btOpyINHmCfGajZJe0Q,Gui Hua Tang Desserts,4350 Steeles Avenue E,Markham,ON,3.5
2MSqfWIaD58x7eysFN-9qA,Mei Restaurant,1425 Rue Mackay,Montréal,QC,3.5
len7Tn8eoi1KhUXbvbzQDw,Pains Farcis Tianjin,"30 Gauchethere O, 2e Etage",Montréal,QC,3
wMiGwn4qPvEN17CaQ3Zi4g,Bright Pearl Restaurant,346 Spadina Avenue,Toronto,ON,3
8AiyGZAhV8eZApKQqyDFSw,Tang,909 - 33 Heritage Meadows Way SE,Calgary,AB,3.5
d_jxInosU_3cAYI0qi34UA,Congee Time,5817 Yonge Street,Toronto,ON,3
FcNtrDGaWmkDzlHaq9F1UQ,Szechuan Szechuan Fine Chinese Cuisine,100 King Street W,Toronto,ON,3.5
2ZHk1x5ZH687aPVo4ElYAA,Tea Shop 168,180 Steeles Avenue W,Thornhill,ON,3
JYCL0ThG7Xw5KDfyVDgb7A,Papa Spicy,339 Spadina Avenue,Toronto,ON,3.5
BJ0pJxKFxzVGDtsknbLFRQ,Ruyi Garden Chinese Restaurant,650 The Queensway,Toronto,ON,3
RbuSogYZ06XHlUWDVaYyBg,My Kitchen,9021 Leslie Street,Richmond Hill,ON,3.5
xaUN51X5c4aVn8mHMIjihw,Chinese Food Gallery,5138 Dundas Street W,Etobicoke,ON,3.5
_fe36eepp9tsP5vzvKbdQA,Furama Cake & Dessert Garden,100 King St W,Toronto,ON,3.5
V2gKY1W1byaAXFmOd111CA,Szechuan Spice,"2104 Highway 7, Unit 1",Concord,ON,3.5
nJ0vbPf5jh5Kpe9Dno-8uA,Guru's Chinese Cuisine,"8917 The Gore Road, Unit 13",Brampton,ON,4
LY80tYTJSgJeCalv2c62Cg,Harmony Restaurant,"668 Silver Star Boulevard, Bldg H-U R202",Toronto,ON,3.5
jA2UKbIXVAvaBbclHGxvdw,Charcoal Grill Legend,"8360 Kennedy Road, Unit B17",Unionville,ON,3.5
R-3epjnJCMscJdJwkkq44Q,Buddha's Veggie Restaurant,5802 Macleod Trail SW,Calgary,AB,4
Z0_qLqeFwOQGhBd_aC9s6w,Hakka Cottage,50a Rexdale Boulevard,Toronto,ON,4
C1JNZrYl3H-YzF1dys9SoQ,Spadina Garden Restaurant,116 Dundas St W,Toronto,ON,3
BEB_jRY-Zh7neYfHks8w2w,Hotpot Panda,2170 Rue Sainte-Catherine O,Montréal,QC,3.5
6z-T_jIFrRQ4c6-BIvVBvA,Congee Star,900 Don Mills Road,North York,ON,3
5-o1J6VpLHxxmP7yAtx8kw,Soluxe,302 Centre Street S,Calgary,AB,2.5
MCwSzkOLLy3uNHitBqbThw,Chicken Ball,700 Balmoral Dr,Brampton,ON,2
Ie7hjGdRMcEGXxpt80iAFg,Qing Hua,1909 Sainte-Catherine Ouest,Montréal,QC,4
vsi_PMRgyFy4_vVfQErtCA,Pearl Court Restaurant,633 Gerrard Street E,Toronto,ON,3
rwKJHC-DE2aLTZiS_xFy7g,Magic Noodle,"1383 16th Avenue, Unit D",Richmond Hill,ON,3
6TLIuls4SiG9VFf2U42p1A,Pho Ngon,643 Bloor Street W,Toronto,ON,3.5
_mkObKf2FTg4pRcCFZBf4w,Dragon Handroll Buffet,2692 Eglinton Avenue E,Scarborough,ON,1.5
JUI0-5ENNGAoqSF8v1LO8Q,Sun Star Chinese Cuisine,636 Finch Avenue E,North York,ON,3
3PhF188adiC8ZutKRP9gyQ,Health Herb Harmony,550 York Regional Road 7,Richmond Hill,ON,3
6hkHrWb82XfJdZ-SJmCKCg,Wok & Roast Chinese BBQ,349 Broadview Ave,Toronto,ON,4
tiw8uPbxSMqx1Ox3JXGsEQ,Island Mix Restaurant & Lounge,1050 Brock Road,Pickering,ON,3
WTuBrN0z2h7xvTaP7eN_XA,Royal House,10 Apple Creek Boulevard,Markham,ON,3
xk4QOTqQHb8FQjge04x_tw,Dynasty BBQ,1550 S Gateway Road,Mississauga,ON,3.5
dNdKrKp7H1xtOxkONkXjkg,Hakka No 1 Restaurant,"682 Kennedy Road, Unit 1",Scarborough,ON,4
0sPOBQHlVvuhO1h-1p1ccQ,Origination,421 Dundas Street W,Toronto,ON,3.5
t65yfB9v9fqlhAkLnnUXdg,Pho U,398 Parliament Street,Toronto,ON,3.5
M28FGxlpihDrbPCuTfUB6w,Mother's Dumplings,804 Danforth Avenue,Toronto,ON,3
0zabNTBrOgQLy0hYsi1Tpg,Montréal Crêpes et Dumplings Chinois,37 Avenue Westminster N,Montréal-Ouest,QC,4.5
i_t_UJTSScw4srpb8aHUiw,Hai Tang Cafe,38 Buttonfield Road,Markham,ON,3.5
CBOsWj63K1_O1m2Ounz7bQ,Ucan,1832 Saint-Catherine Ouest,Montréal,QC,2
_5XClj4E5VCIsEscbrrPKg,LoPan,503 College Street,Toronto,ON,4
Fj7ZQ3N2hGK7C9phNPkGpg,Waterfront Deli,"12 Queens Quay W, Suite 102",Toronto,ON,4
aMWcnH5b5_B2tlquZnLBHw,Happy Noodle,5443 Yonge Street,Toronto,ON,4
9iJMGMsTK-q6W5MB1_Ny3Q,Dynasty Chinese Restaurant,10 Headdon Gate,Richmond Hill,ON,4
cdJDKOB0Todcqnv6CiOQTg,Azian Cuisine,"1480 Major Mackenzie Drive, Unit E5",Maple,ON,3.5
_YoPC6DmYegxbPiKIoAKoA,Hunan Restaurant and Bar,300 John Street,Markham,ON,3.5
aAg9jqanFpexDTi9NJ1nCQ,Thai Basil Garden,1011 Finch Avenue  W,North York,ON,3.5
Sf2g8hq8l1iSgvK39kJBDA,Pho King,14 Kennedy Road S,Brampton,ON,4
LZvA9pglGyUWQ0sZJiOzXg,Wok Du Chef,1200 Mont-Royal Avenue E,Montréal,QC,3
PM5vkmr8FqOIWE0pe3C2Fw,Morals Village Hot Pot Downtown,436 Dundas Street W,Toronto,ON,3.5
Vx2LafDELzYIZBtHVwAjnQ,Tang Dynasty Restaurant,112 3 Avenue SE,Calgary,AB,4.5
7lvogweL-b7av26TUOCf4w,Hey Noodles,5423 Yonge Street,Toronto,ON,3.5
dQojkooHaWvyCor5qcAS6Q,Peking Duck Kitchen,1 Glen Watford Avenue,Toronto,ON,3.5
baHTGBUje_ULyIYoGivPVg,Calan Beef Noodle,2219 Centre Street N,Calgary,AB,4
aMT1FXZvm2_bmJT6QoLV8A,Si Chuan House Cuisine,394 Spadina Avenue,Toronto,ON,3.5
1CeWMRJwyFkQ-fc3MR1Dmg,Congee Queen,230 Commerce Valley Drive E,Markham,ON,3.5
oNZgQTBzazjS6JQBvmE_HA,The Big Mouth Luck Dumpling House,1560 Yonge Street,Toronto,ON,3
_AiqOS8io_reYZri1OeP1g,Qualitea,469 Queen Street W,Toronto,ON,4
2SyYW8GiDZsqtPb-aCbosg,Noodle King,123 Queen Street W,Toronto,ON,4
TU95jEn8aGitY8hZowXaBg,Congee Me,4419 Sheppard Avenue E,Toronto,ON,3.5
3Kx4IdA-knGK-9QrGtGl2w,Dickens Cafe,8 Glen Watford Drive,Toronto,ON,3.5
iVjeR9z1xVt2ZpxVU4UcXQ,Taketomi Village Hakka & Chinese Cuisine,126-920 36 Street NE,Calgary,AB,3
JS8MpdVJ8-grSVNObYXnbA,Mandarin Restaurant - Vaughan,8787 Weston Road,Vaughan,ON,3.5
Sw-OqRcaKL8pG5sqIa9p4w,General Thai & Chinese Cuisine,"11000 Yonge Street, Unit C2",Richmond Hill,ON,3
b00Rm7F5sI_Puqw6BlsfjA,Délicieux Xiang,"1051, Boul Saint-Laurent",Montréal,QC,3
HAzqPzwxiSu2-XhJkz8ntQ,Golden Shanghai Restaurant,7750 Kennedy Road,Markham,ON,3
xm7-97_FjTOChQPUr0AfVA,Restaurant Soba,5227 Rue Sherbrooke  W,Montréal,QC,3.5
SeGmGvFWi58zGOq1O4953Q,Amazing Thai,10255 Yonge Street,Richmond Hill,ON,3.5
SbwUKzeMlSZs-mQt0lOGQw,Casa Victoria,"8601 Warden Avenue, Unit 4-6",Markham,ON,3
XNVUXM8xY-slNbcPAr-w8Q,Potato Noodle Soup of Bai,4300 Steeles Avenue  E,Markham,ON,4
v_xuLfW7TXBsQctpOuPvQw,Magic Noodle,93 Harbord Street,Toronto,ON,3
bEn1L8tr2SFTlyQIw79gOg,Choice Of The Orient,9555 Yonge Street,Richmond Hill,ON,3
M-rqZ56wTGSNoIIsBSlhDA,Hong Kong Style Cafe,10 Apple Creek Boulevard,Markham,ON,3
vctaNms-o_VDHWCAbldFjQ,Sika Deer Chinese Cuisine,4186 Finch Avenue E,Scarborough,ON,3
2tiFUn8EU0EpjWBHjt1L6w,Wok Cafe,1845 Rue Sainte-Catherine O,Montréal,QC,2
5fg-RNWNbqyGn8b8wqe4QQ,168 Sushi Asian Buffet,"1520 Steeles Avenue W, Unit 103",Vaughan,ON,3.5
wwoOWTunPh4QnaKW11Zl7A,T & T Supermarket,1 Promenade Circle,Thornhill,ON,4
wR71mnXAJMVmgMBrHevndQ,Chef Wong's,"First Markham Place, 3235 Highway 7 E",Markham,ON,3
vPTkG6k_ZzLakPp4s-gQJQ,Tin Tin Cafe,9688 Leslie Street,Richmond Hill,ON,3
Qr6KiVgv7CklIc0J3EKMCQ,Orient Express,4271 Sheppard Avenue E,Toronto,ON,4
IHt79wxZHkD7QSzlDRDivw,Ho Ho Barbeque,3833 Midland Avenue,Toronto,ON,4.5
kzMj-vVZTGewPCZnnzIlJA,Langham Delight,28 South Unionville Avenue,Markham,ON,3
OCnxN6lO64Gr3wYAHA12tQ,Congee Dynasty,1100 Burnhamthorpe Road W,Mississauga,ON,3
XplJHcYSQTFlwv3Rk8WsYw,Shanghai Dim Sum,4401 Sheppard Avenue E,Toronto,ON,3.5
r1SfvWKoRQcoMoGy9ou-JA,Congee Wong,"First Markham Place, 3235 Hwy 7",Markham,ON,3.5
6Bvu4_7hdQkwMC5SyQspEQ,Home Food Inn Peking Cuisine,5222 MacLeod Trl SW,Calgary,AB,3
3ijLguDlxXRDSPHSVrikPQ,He He Long Bbq Take-Out Shop,111 Ravel Road,North York,ON,3.5
2UFl9gLOQrSGY2sPu6U-kA,Little Sheep Mongolian Hot Pot,2543 Warden Avenue,Toronto,ON,3.5
ZNwEK2OWihq9h8rEUUh_BA,Sushi 4 U,224 Main Street S,Newmarket,ON,4.5
PYiCDIzavQ6XjIYaEjfLqw,iCook,7030 Warden Avenue,Markham,ON,3
aszT-DYgQOtn8GVLsF2KVw,Mi Noodles,922 Centre Street N,Calgary,AB,3.5
nplCF1hjAn948EMAaJAazA,Super Taste Noodle House,"2900 Warden Avenue, Unit 107",Toronto,ON,2.5
DkIx-Ymij3BA7nrwYu9UIA,Morals Village Hot pot,"1177 Central Parkway W, Ste 2",Mississauga,ON,3
uNKc0RnUClv-Nk6pU34QXw,Nouveau Maison Foo Lam,9394 Boulevard de l'Acadie,Montréal,QC,2.5
mr-w96_vgHpfLmQtfFkkXw,Oriental Phoenix Restaurant,"401 9 Avenue SW, Suite 105",Calgary,AB,3
9OD0pQ0QYa_7dO-LbOBFZQ,Furama Cake and Desserts Garden,248 Spadina Avenue,Toronto,ON,3.5
x3JHj5h33ouzw_Ynj-utJg,Asian Legend,4452 Sheppard Avenue E,Toronto,ON,3.5
HBVzTJlmv1rD2SBL1OAOTg,Riverbend Peking House,"8338 18 Street SE, Suite 232",Calgary,AB,3.5
cNWxGkoyNssl17kY9-gAEw,Mighty Mango Restaurant,"15425 Bannister Road SE, Suite 18",Calgary,AB,4
vuXz17TgImV6_VNYwFkKYg,Taste of Yunnan,438 Dundas Street,Toronto,ON,3.5
pRwh3BEM-dhixAGJl_TgUA,Ten Ren Tea Company,454 Dundas St W,Toronto,ON,3
bwFxrxHrz9I36awGc-yjjw,TAO Northern Chinese Cuisine,220 Laird Drive,Toronto,ON,3.5
ld3lAIb7Eqhl08i71PCYng,Wuhan Noodle 1950,3621 Highway 7,Markham,ON,4
UmsRsglkyspIfrqmuP0uEw,Living Waters Therapies,"1114 Queen Street E, 2nd Floor",Toronto,ON,4.5
LckZpP8V1F5zU5ZKVrhp2Q,Xin Jiang Barbecue Restaurant,3330 Pharmacy Avenue,Scarborough,ON,3.5
XXGzCIcxzAZ6H98mxZbdqA,T&T Supermarket,222 Cherry Street,Toronto,ON,3.5
D84t4wCarKR7h9lbWZDFmQ,Tang Dynasty Best Food,8360 Kennedy Road,Markham,ON,2.5
yD2jmBrBPbLJ2yN3lQQHjw,Wangs Kitchen,"4559 Hurontario Street, Unit 12A",Mississauga,ON,3
bTGySRKZipOmjN27wuEVkw,Rice to Go,25 Thickson Rd N,Whitby,ON,4
uVzcDI3s3oFb1wzDDar0mQ,La Cabane de Danny,52 Rue de la Gauchetière O,Montréal,QC,3.5
SLH_6FIjptg5BEJbYNld6w,Oja Noodles House,689 Yonge Street,Toronto,ON,3.5
i0u5CzG81LrEwAI0X5OVkQ,Ming Room,6461 Mississauga Road,Mississauga,ON,3
BJLjRP7HvIbdQOZc9UoVNA,Congee Wong,"Promenade Mall, 1 Promenade Circle",Thornhill,ON,3
BHX0ghpo_r4lVxGRPEBIQw,The Dumpling King,"3290 Midland Avenue, Unit 2",Scarborough,ON,3.5
kXRTFpDLpNUoWDe96kGSVw,Ginger Beef Express,"356 Cranston Road SE, Suite 6006",Calgary,AB,3.5
o4gB1zWiCHgbjq-tNFRW-g,Panpan Noodle Bar,"23 Baldwin Street, 2nd Floor",Toronto,ON,3.5
5kr-0TOY6n0GK-riRg_08A,August Moon,9630 Elbow Dr SW,Calgary,AB,3
r-4QibHfGYJFzbFUtoCMNw,Chez Ping,7401 Boul Newman,LaSalle,QC,3
YEHWvvwcunakP4CyteM82A,The Brilliant Chinese Restaurant,7220 Kennedy Rd,Markham,ON,3.5
VOsvscZOFYzcsdbmAlVkiA,Mean Bao,181A Carlaw Avenue,Toronto,ON,4
bXiifZStiaS-4xO2fRsNXg,Happy Hill,806 Centre St NE,Calgary,AB,3.5
DoSp0KBcnwn4SYssW7P2Ow,Go For Tea,"230 Commerce Valley Drive E, Unit 2",Thornhill,ON,3
KRoJhHyPWORMJn1UO5kAkA,The Six Cafe and Restaurant,8920 Woodbine Avenue,Markham,ON,3.5
xYe-LX3lSKlNS3Wp29_YyA,China Palace,3530 Derry Rd E,Mississauga,ON,3
bsqHkqXLGyjZNM6xFl3xlQ,Brother's Taste of Asia,2335 162 Ave SW,Calgary,AB,3
rXJyCT9XqWD431B1lp4Thg,Spicy House,8392 Kennedy Road,Markham,ON,3
bzMO8LJmJtgo3KuyWGKUxA,Homemade Ramen,263 Spadina Avenue,Toronto,ON,4
f1iTkj320DVn4TyWcvsUjA,Golden Prince Seafood Chinese Restaurant,4855 14th Ave,Markham,ON,3
vxaFYMI3xdrdsFCaJI-Zcg,King's Restaurant - On Barlow,104 Meridian Rd NE,Calgary,AB,4
_MbwP_b3c5ZOCvCRArsyqw,Leo Fu's Szechwan & Mandarin Restaurant,511 70 Avenue SW,Calgary,AB,2.5
ls3r7doDW0p65cwMWxEIdQ,Grill Fish Cool,102 - 5005 Steeles Avenue E,Toronto,ON,2.5
tQ9BtMUHFr8rdpmjmayUcA,Lucky Noodle,1661 Denison Street,Markham,ON,3.5
UxC1BmMSuYRH38YBvSTnKw,Cafe Arc De Triomphe,5813 Yonge Street,North York,ON,3
Bu1SgnZblQhE345j3GlzUg,The Great Maratha,965 Eglinton Avenue W,Toronto,ON,4
lvU7Mu7YU_2Gfw6QvsKqqw,Royal Jasmine,"5165 Dixie Road, Unit 3",Mississauga,ON,3.5
a82qehaFBUa9AFIn9dNYEw,Pho Lam,"60 Dundas Street East, Unit 5A",Mississauga,ON,3.5
JethT5yt9ju6MGK8-N3oPg,Noodle Delight,2555 Victoria Park Avenue,Scarborough,ON,3
QTYA1yCbsCjRU6BYDdQJuw,Sweet Pea Dessert Cafe,"633 Silver Star Boulevard, Unit 121",Scarborough,ON,3.5
prr5pOED31nKWUfCHUvhrA,Restaurant Soy,5258 Boulevard Saint-Laurent,Montréal,QC,4
1yAbNyUgJhOjCz9EcOCWdA,Forestview Chinese Restaurant,468 Dundas Street W,Toronto,ON,3
yh6PbP1RY3eJKaRMeLaVmw,3Q,4323 Macleod Trail SW,Calgary,AB,4
y_3Csg19MnwCX8M_aMgMHA,Congee Delight,"3555 Don Mills Road, Unit 4",Toronto,ON,3.5
ywczsfJ5mTSIAL2PnIAKog,Amazing Seafood House,"4721 Highway 7 E, Unit 5",Markham,ON,3
t_i2Viy-GcEMnDwsnkcoCw,Sail Sushi,4352 Kingston Road,Scarborough,ON,2.5
_UZR3RZ56PnUO2ZpNba0Kg,Soupebol Nouillerie,1245 Du Square-Phillips Rue,Montréal,QC,2.5
i0h_osnln8_0I34Vliq_mQ,Tian Fu Chinese Restaurant,4771 Steeles Avenue E,Toronto,ON,3
uLzgiSqVg5Pr93VVXSdOlg,Nouilles de Lan Zhou,1006 Boulevard Saint-Laurent,Montréal,QC,4.5
cwsxAGssF-DBU-Gj9_yg9Q,Ta Chido,5611 Avenue du Parc,Montréal,QC,4
ovlWOSKVjGecnaPuZLv_OQ,Crown Princess Fine Dining,1033 Bay Street,Toronto,ON,3.5
c8W-jLGOk74_h9gOa68xSQ,One Plus One BBQ,"633 Silverstar Boulevard, Unit 105",Toronto,ON,3
ioJYj9mFRprldQ3Yf2CLTA,China Court Express,554 Sheppard Avenue W,North York,ON,2.5
nGAw4TZ8pBT7ZQxi-Mxf8Q,Asian King,800 Steeles Avenue W,Markham,ON,2.5
hfeu3UZ-OrCgf5mp6RBjvA,The Taste of Home,"3636 Steeles Avenue E, Unit 177-120",Markham,ON,3.5
GL7tuUyuCPsz1L0L81MpUA,La Maison de Kum Mon Restaurant,6565 Ch De La Cote-Des-Neiges,Montréal,QC,4
dKOrxsz6ygqa-AatwzpKyQ,Casa Deluz Banquet Hall,1571 Sandhurst Circle,Toronto,ON,3
U1S6NFCtMzq-qX7PnU2i_Q,Harbin Bbq,3278 Midland Avenue,Toronto,ON,3
lP8Qx2Lv0rjgTgDOvs_2Sg,Lee Town,4907 Yonge Street,Toronto,ON,3
hsgRNkXFMCqzO7nPRB3yJQ,Sugar Sweet Cafe,4911 Steeles Avenue E,Scarborough,ON,3.5
3HeX5ZAaPesR0psjGHtI6g,Tea Shop 168,505 Highway 7 E,Richmond Hill,ON,3.5
jA_ccbcWXJVPTb3K8phv9g,Li Dynasty Indian Hakka Chinese Cuisine,"9750 Markham Road, Unit 1 & 2",Markham,ON,3.5
nV8mDMin6c964MgjK6JZgg,Congee Town,1571 Sandhurst Cir,Scarborough,ON,3
1pZk5sw5m8kPTMdvIp6UVA,Ye's Sushi,"2501 Hampshire Gate, Unit 8A",Oakville,ON,3
4t_RBsTtU7hhVYJweh46Uw,Bayview Court Chinese Restaurant,1070 Major MacKenzie Drive E,Richmond Hill,ON,3.5
M_fzy4_KslKoXeyZ022Z8g,8-Aug,331 Spadina Ave,Toronto,ON,3.5
6ZsiLiSWGK2pgw6t3LfzNQ,Donburi,"505 Highway 7 E, Unit 93-95",Markham,ON,3.5
ZnxudK5ExgpfXs4bicS4IA,Mulan Chinese Cuisine,747 Don Mills Road,North York,ON,3.5
jKN4-aY6DEeAXNeL6CNLJQ,Tchang Kiang par le Yangtze,6066 Rue Sherbrooke O,Montréal,QC,3.5
iddR-Z7pwpp90Cu8SFJ3QA,The Perfect Kitchen,"3075 Ridgeway Drive, Suite 1",Mississauga,ON,3.5
sNFwJW842AyLkq3IwZFfrA,Spring Roll Chalet,614 6 Avenue SW,Calgary,AB,3.5
H_DDpVqMjkJmwceBM5CcYQ,Spicy Dragon,"1340 Kingston Road, unit 3",Pickering,ON,3
2meb5cwKh125tF5IwUiIJA,Pâtisserie Harmonie,85 Rue de la Gauchetiere O,Montréal,QC,4
GQ5f1D9CbFLXkBAlGR7riA,Buffet Queen,63 Harwood Ave N,Ajax,ON,3
dz3iE4ab6XtODq15qmLSzA,Fu's Garden Restaurant,"1650 Dundas Street E, Unit 6",Mississauga,ON,4
I2ymNzdo4nZG30U1TAmSew,Li Cheng Restaurant,529 Marlee Avenue,North York,ON,3.5
R__NLOqjUlw8qf12KD-I5A,Ding Dong Pastries,321 Spadina Ave,Toronto,ON,3.5
NSGFzlDGs71v43Y7a1XH0A,Kung Fu Chop Chop,"16 Vogell Road, Unit B",Richmond Hill,ON,2.5
oYpuRk0nDIc3qa-II9Sa9Q,Eddie's Wok N Roll,6400 Millcreek Drive,Mississauga,ON,3.5
H2NMmuys7fy5PcXW7lmKbw,Sushi Kai,"609 14 St NW, Suite #100",Calgary,AB,4
mNRAFxAqL31c2Y96LEKggA,King Szechuan Chinese Restaurant,"487 Cornwall Road, Unit D12",Oakville,ON,3.5
GilIp96ZEsF4prlDPducog,Akko Cake House,"4040 Creditview Road, Unit 1",Mississauga,ON,4
XtPizI-UGjySLiQrRuNjYQ,Shaanxi Restaurant,505 Highway 7 E,Richmond Hill,ON,3
43V5SUyC04za5ITSvRndog,Great Taste Chinese Restaurant,123 2 Avenue SE,Calgary,AB,4
XETJL05OGIi-WliFzgk7cg,Panda Express,"Heartland, 5985 Mavis Rd",Mississauga,ON,2.5
DKMW5M-VI8QKA9YFuBvWtA,Sichuan Secret,585 Bloor Street W,Toronto,ON,4
2UdoeXzcFg87O1VMCc3WGQ,Cynthia's Paradise,16715 Yonge Street,Newmarket,ON,3.5
n6eRADUe9PXz3qfZ69hT8A,Lee Chen Asian Bistro,"84 First Commerce Drive, Unit 5",Aurora,ON,3
nFktMPlUZh06-dGTg4HdPw,The Spicy & Delicious,"4664 Yonge Street, Unit 13",Toronto,ON,4
JQrh2cmndqRKwTpVveHPDg,Dayali,160 York Boulevard,Richmond Hill,ON,2.5
K8W4XXNM8iehgNtdEI2f4w,Shangri-La Banquet Hall & Convention Centre,50 Esna Park Drive,Markham,ON,3.5
Ysz-Xvo6QT9oaQDH4ephlw,7 Dim Sum,867 Danforth Avenue,Toronto,ON,4.5
FfmH-oEWN7K1za-o8KZQDA,Palace Bakery and Cafe,"9019 Bayview Avenue, Unit 8A",Richmond Hill,ON,4
nqnVKM55nIZn8fNH1fIJPA,Simon's Wok,797 Gerrard Street E,Toronto,ON,4
E0h1kK-8P_DtBHk5ClVI_g,Bayview Garden Chinese Cuisine,1177 Central Parkway W,Mississauga,ON,3
VeYLpoglt8XepYdN2PjSmA,Hakka Wow,1433 Gerrard Street E,Toronto,ON,3.5
y-jepn_1nL1OipL7lNnRMA,Little Pig Hot Pot,"3260 Midland Avenue, Unit F101 &102",Toronto,ON,3.5
nTQhgQZa7HhIpyM0ICC1mw,Hu Tieu Nam Vang Hong Phat,"3175 Rutherford Road, Unit 70",Vaughan,ON,3.5
ggAHppSaR5Z-KrAXZjC_rg,Deer Garden Signatures,"1520 Steeles Ave W, Unit 102",Vaughan,ON,4
eI1ZHGOr2Pus842KrZD5ZQ,Casa Imperial Fine Chinese Cuisine,4125 Steeles Avenue E,Scarborough,ON,3.5
ygJshif4VuxL1ijnRJnuYA,Lee Garden Restaurant,331 Spadina Avenue,Toronto,ON,3.5
HG9m9eldYtnX_UeMt4Yy2w,369 Shanghai Dim Sum,8380 Kennedy Road,Markham,ON,3.5
pbMrG6pc-dh5yePwYRNa2A,Cho Cho Cho,863 St Clair Avenue W,Toronto,ON,3
fvnaLCkyIyCw7vQuO8-H3g,Judy Cuisine,550 Highway 7 E,Richmond Hill,ON,3
JwtQWW1C_y6GhLQzNghrOw,Lai Toh Heen,692 Mt Pleasant Road,Toronto,ON,3.5
ZilzayEdyk70SoI-wruJbg,Congee Queen,895 Lawrence Avenue E,North York,ON,4
PXjFfAdj7ZJ6M5Rm19lw3w,Billy's Dumplings,524 Bloor Street W,Toronto,ON,3.5
WWyiaVsJusbRRdpTP5gomQ,Chez Chili,1050B Rue Clark,Montréal,QC,4
K3Mdyib-ZFMPHGuk5_kBTA,Oriental Palace Restaurant,9 Parkdale Crescent NW,Calgary,AB,3.5
GqRQbFlgov853CIOEnrvsg,China Palace,80 Courtney Park Dr E,Mississauga,ON,3
4eAKvnILoB8n4wUWd3uy3Q,ALA Shanghai,"4300 Steeles Avenue E, 2nd Floor",Markham,ON,3
3pYZMSbOKh6rBo_DapMlyw,Tasty House,240 Alton Towers Cir,Scarborough,ON,3.5
FqQFKV9MQ6vBRbmcja7Pyg,Marvelous Asian Cuisine,15440 Bayview Avenue,Aurora,ON,3.5
MpmN8iB7wJqYOIjVAsUr8w,Asian King Buffet,"2425 Truscott Drive, Unit 24",Mississauga,ON,2.5
hAGqD8Qblo-NN5gmaYOd6A,Maple Sushi,"30 Disera Drive, Suite 110",Thornhill,ON,3
nPatYo3wQ7tcvx7nzOU4GQ,Chopstick House,1780 Markham Road,Toronto,ON,2.5
Igz_MHdVL_lZK8moVdoZKw,Dragon Gate Restaurant,2024 33 Ave SW,Calgary,AB,3.5
M1JSUyCkrdRhNFivDbC0LA,Destiny,"633 Silver Star Boulevard, Suite 115",Scarborough,ON,2.5
9ad0-8h-DRUheY9dF9rYjQ,I Love Pho,"848 Burnhamthorpe Road W, Suite 8",Mississauga,ON,3.5
DtqSRW_cr1nm8yTdFVBnYw,Tiger BBQ,250 Alton Towers Circle,Toronto,ON,4
JDWhkcJHNGX-KY0bOLcodQ,Shark's Fin City,4300 Steeles Ave E,Markham,ON,2.5
0Eqjt54KPklmWTsly9ltyQ,South China,513 Mount Pleasant Rd,Toronto,ON,2.5
9WmvVbYoM9X1ZP6txZgohQ,Liwan Kitchen,"4271 Sheppard Avenue E, Unit 2",Toronto,ON,3.5
yJ5rA9U6nmSEUV8_j_jYHw,Diamond Banquet Hall,"First Markham Place, 3225 Highway 7 E",Markham,ON,3
dfDmylDjZAccgMyhYPbZaA,Satay On the Road,2003 Avenue Road,North York,ON,3
ZJdBctpe_qbXXwAVMBk0bQ,Wok With Yu,4000 Steeles Avenue W,Woodbridge,ON,3.5
sdMISc22hQ2hiq40qRzt1w,Edgemont City Asian Cusine,45 Edenwold Dr NW,Calgary,AB,2.5
y0YM6nQcrBKwg59bv1YzBw,Wok Café,3510 Boulevard Salaberry,Dollard-des-Ormeaux,QC,3
XImlOaB7nJH7kxG_4hGJ1Q,Papa Shunde Chinese Restaurant,246 Hawkstone Drive NW,Calgary,AB,4
rROHsa0BQsKjxNnfYjBF9g,Canton Chilli Restaurant,418 Spadina Ave,Toronto,ON,3
qZFZJXASKETnKvq6ciVoFw,Fav Cafe,"280 W Beaver Creek Road, Unit 31",Richmond Hill,ON,3.5
eNynYZJtl5d6fyoNNKJ4Aw,Ambrosia Veggie House,1009 4th Avenue SW,Calgary,AB,4
f4ca22TTZcsmkzjfB7_Zzg,Silk Road Restaurant,438 Horner Avenue,Etobicoke,ON,3.5
rwIX_RFBEPOjMRyA32d2Ew,Bluefin Sushi,"9737 Macleod Trail SW, Unit 100 D",Calgary,AB,2.5
oWVb9wKB7W1SS4PSikxPdA,Simmer Huang,2045 Rue Bishop,Montréal,QC,3.5
AL_dmG-SSeykB0X5SpDiwA,Wei's Kitchen,"3229 Hwy 7, Unit 13",Markham,ON,3
9-lGjghZUEPmKyviTyYLUA,Kung Fu Noodle,"First Markham Place, 3229 Highway 7 E, Unit 10",Markham,ON,3.5
iQT1y93mE8j3ZbNaXGd-sA,PF Chang's,3035 Boulevard  Le Carrefour,Laval,QC,3
JMRJxV9PxIT78ticltqm9g,Dimples,"505 Highway 7, Units 10 and 11",Markham,ON,3
IaweS7AnQ1zFwAO2K9dAbw,Yunshang Rice Noodle House,"3229 Highway 7 E, Unit 9",Markham,ON,4.5
4e_kgP5CBbWwZCYEbConPA,Oriental Phoenix Restaurant,80-104 58th Avenue SE,Calgary,AB,3.5
WuQZ5iesON7NWTDWgwWlbQ,Premiere Ballroom & Convention Centre,9019 Leslie Street,Richmond Hill,ON,3
UpbTdzW9OoVrnbpHyxnMWg,Mandarin Restaurant - Toronto,2200 Yonge Street,Toronto,ON,3.5
Qqu_MRaus17-4VVmzXq1_g,Ming Cuisine,"1 Spadina Road, Unit 21-23",Richmond Hill,ON,3.5
KynXf-SiyaxrnJ4w9bhfUw,Spice And Aroma,387 Spadina Avenue,Toronto,ON,3.5
DW7ttoWMaI2jWN41gekbiA,Mandarin Restaurant - Rexdale,200 Queen's Plate Drive,Rexdale,ON,3
yYDjvIuKUU-W6OhA-IkWUw,Thaison,7093 Rue Saint-Denis,Montréal,QC,4
kf6GtTk_6UPrpICC-eQH4g,Parkway Kitchen,670 Highway 7 E,Richmond Hill,ON,4.5
p0aNNb7o6Ou6kn4apz4lkQ,Magic Idea,1675 Boulevard de Maisonneuve Ouest,Montréal,QC,4
52Iyhd0kdxtG_4LOZpQ7WA,Hakka 77,"165 E Beaver Creek Road, Unit 28",Richmond Hill,ON,4
uP2-0N59oW5lggIyvdfWkQ,Chung King Garden Restaurant,"4394 Steeles Ave East, Market Village - D4",Markham,ON,3.5
Ib-WbHVHp_e1PZnU0P6JfQ,King Crab Seafood Restaurant,405 Dundas Street W,Toronto,ON,3
8YG7PRoZuHeKii0rtNvJFQ,Dragon Boat Fusion Cuisine,"160 E Beaver Creek Road, Suite 4-6",Richmond Hill,ON,3.5
-25X5v1q3WU6s-craJSvTw,Wok Terminal,156 The Queensway,Etobicoke,ON,3
S2_YSVQlTxu0ABRDEsze7g,Chongqing Liuyishou Hotpot,"650 Highway 7, Suite 102",Richmond Hill,ON,3
XPtDU14nu36LWt7_UagI9Q,Happy Dim Sum Bakery,"680 Silver Creek Boulevard, Unit 3",Mississauga,ON,4
kSQUHJDQ8xYJAh1DtuTHAQ,Fairview Seafood Chinese Cuisine,5103 Sheppard Avenue E,Scarborough,ON,3
YQYKMPLqJxFzWZlSRTM74w,Simmer Huang Restaurant,5330 Yonge Street,Toronto,ON,2.5
lbnyJplXeb2O0HjRRqlFtA,Cuisine AuntDai,1448 Rue Saint Mathieu,Montréal,QC,4.5
bK7dxnD1FYuV4mVVVCMeNA,Hey Noodles,478 Dundas Street W,Toronto,ON,3.5
PTPd2xamYtUCH00NqML-YA,Happy Time Seafood Restaurant,"146 Old Kennedy Road, Unit 1",Markham,ON,3
lh9ZqHBodHoHkRZzshaXlg,Spicy Mafia,"20 Gibson Drive, Unit 111A",Markham,ON,3
XGc_QdKg9oP8bZ3VM1e5IA,Good View Restaurant,134 Dundas Street E,Toronto,ON,3.5
PkSLYsOrI5AA1LX46PguXg,Akabane Sushi,8750 Bayview Avenue,Richmond Hill,ON,2.5
N7wlv3nrhDPuDDY8yX6QvQ,Apron Cafe,"9631 Yonge Street, Unit 2",Richmond Hill,ON,3
MDeqp3L79cq3h11_nW5umw,T&T Supermarket,9625 Yonge Street,Richmond Hill,ON,3.5
rOyXMZJIFa0_XW2AeXatsA,Shaanxi Legend,"3250 Midland Avenue, Unit D102",Toronto,ON,3
FjG32sJivL1xBemPo9hlrw,Asian Delight,"9688 Leslie Street, Unit  17-18",Richmond Hill,ON,3
XCUXCTHvY8QVR4xU0DF__w,Dumpling House,619 Gerrard Street E,Toronto,ON,3.5
XqPMOwrJ0xjphyNQYcoPLg,Buddha's Vegetarian Foods,666 Dundas Street W,Toronto,ON,4
AVLj5MSJD1si-Rl6X6qTXQ,Rosewood Chinese Cuisine,463 Dundas Street W,Toronto,ON,3
uNLvQTK7DnLGRvDUD-i4JA,Phoenix Bakery,615 Gerrard Street E,Toronto,ON,2.5
pv0CUMRAJqOES16AayszlQ,New Fusion Restaurant,"7 William Graham Drive, Unit 4",Aurora,ON,4
IGGDsLbFfqlqueE40hspdg,SoSo Food Club,1166 Dundas Street W,Toronto,ON,3.5
nQe4TPwn3iGiWlRWqguhwg,Chatime Vaughan,"3175 Rutherford Road, Unit 31",Vaughan,ON,4
6li0hNHDg5kuiEw9nXkedg,EN Sushi,7694 Hurontario Street,Brampton,ON,3.5
zfUQa2aPEoPjWLkvCfDhtg,C'est Bon,2140 Yonge St,Toronto,ON,3
VJJ6t8DAAmq277RS5gbCdA,Karachi Grill,3425 Fieldgate Drive,Mississauga,ON,2.5
Hm2YntlJzqP4reNZRlkCEA,Woodstone Eatery,"10 Apple Creek Boulevard, Unit B1",Markham,ON,3.5
1bkp1NeTw5yg3hTsldkoPA,Not Just Dim Sum,19 Finch Avenue W,North York,ON,3
hqpPDu238T1tpBa64Q0TSw,Tasty Chinese Food,109 McCaul St,Toronto,ON,3
ryHP2wazRMgY4j4TkH7-Bg,Hong Far Cafe,9425 Leslie Street,Richmond Hill,ON,4
t4C5LsJJrm4FL1VCEkBcHw,Le Piment Rouge Windsor,1170 Rue Peel,Montréal,QC,3
yYL95YmG-2lI33G9ZLseyQ,Health Gourmet,"3278 Midland Avenue, Suite D120-D125",Toronto,ON,2
WiLKkmQu_dlTaAxEObG7lg,Superpig Chinese BBQ Restaurant,"50 Bur Oak Avenue, Unit C-6",Markham,ON,3
gD5lNqqaXK8HC1SpA04AAw,Spicy Hut,203B 4th Street NE,Calgary,AB,4
kjx0Zq21nF9aAK9wpGkmng,Dumpling King,15 Northtown Way,Toronto,ON,3.5
dAtT3iwh3Os5lkA7TySvNg,Top 1,165 E Beaver Creek Road,Richmond Hill,ON,3
cbVaCo7DdU4ClI3ujqnMyw,Pompom Rouge,540 Avenue Ampère,Laval,QC,4.5
mmt2tfx6HkMPVJs2Ecr-Sw,Keung Kee,70 Rue de la Gauchetiere Ouest,Montréal,QC,3.5
uhX3mfuapCkWqFJkPjrMZA,Silver Star BBQ,"668 Silver Star Blvd, Unit 201",Toronto,ON,3.5
NKHvmp19c6wrm0dZXcLtmQ,Sugar Marmalade,"780 Burnhamthorpe Road W, Unit 2A",Mississauga,ON,3
Dh2Z3WNu6M71LbMNHEeg3w,Hakka Town,225 Castle Oaks Crossing,Brampton,ON,1.5
eZw3cZVQzVEdzsAzPswryg,Duke Dragon,"1855 Dundas Street E, Unit 3",Mississauga,ON,3
VVUL1lzBOipXJlOG1wURMg,Tangerine Asian Cuisine,"7690 Markham Road, Unit 4C",Markham,ON,3.5
dj2KhjtZBC3Y1IrAsDXYng,Le Gourmand,42 Rue Sainte-Anne,Pointe-Claire,QC,4.5
h5pqhSb74UeLNkv534m5Hg,Qin Tang Taste,1883 McNicoll Avenue,Toronto,ON,3
2d9RbgRtHJyTRzY99GBNOQ,Garden Restaurant,149 Dundas Street W,Toronto,ON,3.5
zhE9euD7t-RlXmWk50rCxQ,Yummy Ramen,4300 Steeles Avenue East,Markham,ON,2
nGCKQlzat6nEKTImlpg_hg,Joy Fortune Chinese Cuisine,3453 Victoria Park Avenue,Toronto,ON,3.5
7maw_SNG0Q_co6-jPDoUnw,Chong Qing Legend,4733 Steeles Avenue East,Scarborough,ON,4.5
Qzq-m_TKJ-Iv1BmYLcjlVA,Spicy Dragon,1060 Kennedy Road,Toronto,ON,3.5
6qkNhpgMYE6y3eHurFq6yw,MAI MAI Restaurant,3266 Lake Shore Boulevard W,Etobicoke,ON,3.5
c4CKIYAeV7O0UKHsYuzkwQ,Café Saigon,1280 Rue Saint-André,Montréal,QC,4
yYuqSui8N0xesgiviE4evg,Cakeview Bakery & Cafe,"4188 Finch Avenue E, Suite 3",Scarborough,ON,3.5
3qjztON1RW5Hn6QJLDl8ug,Omei Restaurant,420 Hwy 7  E,Richmond Hill,ON,3.5
4kkh8Uj0jG7olKEocCASrQ,Barcode Chinese Restaurant,433 Comstock Rd,Scarborough,ON,3.5
SdUBFhIzwpN5IZfcr9jc-g,Tianjin Fine Food,"3255 Hwy 7 E, Unit 265FC",Markham,ON,3.5
D9bf5U0y_0MnL9wMFc4bKQ,Peoples Eatery,307 Spadina Street,Toronto,ON,4
tKNu5QQDlQQnVe821KzwKA,Basilic Hong Kong Cha ChaanTeng,83 Rue de la Gauchetiere Ouest,Montréal,QC,3
2BuiyGL0JbNjnc88fYH39Q,Hot Pot on Yonge,5441 Yonge Street,North York,ON,3.5
O_Yi95nUeeqSudiMlUfttQ,Restaurant Ethan,72A de la Gauchhetière,Montréal,QC,2.5
QiRWdm4GkmtEMO_npOyBjA,Hong Kong Garden Restaurant,70 Shawville Boulevard SE,Calgary,AB,3.5
KLwTrBLp9ClmH35ZBAlbYg,Restaurant Sai Gwan,14 Rue de la Gauchetiere E,Montreal,QC,4
21aDJ_xLGcEDkcyQRexlOQ,Hawkwood Palace Restaurant,555 Hawkwood Blvd NW,Calgary,AB,3.5
KXl2k4LkrmnHRTTAY-TVDQ,Bombay Chopsticks,"Sandalwood Mall, 30 Bristol Road E, Unit 3",Mississauga,ON,3.5
Lpp8IiUVEhJzF4Fb8DkScQ,Hakka Legend Asian Cuisine,"789 Warden Avenue, Unit 2",Toronto,ON,4
osReQ5btI-E12En-veu52Q,Beijing Sung,2150 Steeles Avenue W,Vaughan,ON,3.5
zSkm2XpNdA_8Ze0pC7HVhA,Regal Palace Chinese Cuisine,"6485 Mississauga Road, Unit 3",Mississauga,ON,3.5
u3q_fVU-qxgoGWLPVy4nMw,Tommy's Restaurant,"3175 Rutherford Road, Suite 32",Vaughan,ON,4
zUvP_UHcPn036uToN5daHg,The Dragon Bistro,139 Main Street,Unionville,ON,3.5
BLgwFGqvAIiG9J2ID47YyA,Beijing Hot Pot Restaurant,"107 Parkway Forest Drive, Unit 1",Toronto,ON,4.5
c4-w_6Xv4i2qRE3c4Qas7w,Ha Gow Dim Sum House,988 Danforth Avenue,Toronto,ON,4
KeQ1cK564cL5C_hBTFrqnA,Desi Bar & Grill,925 Rathburn Road E,Mississauga,ON,4
AFxhYWtszxGXaGGMnWZ9CA,8-Aug,"25 Peel Centre Drive, UNIT 513",Brampton,ON,3.5
RJnikmkw2aW4gF2zcmxfvQ,China Garden Restaurant,7071 Airport Road,Mississauga,ON,3.5
xb0a9XiNMbdXo19WTOGHuA,Spring Rolls,"25 Peel Centre Drive, Unit 513",Brampton,ON,2.5
RI-E3WWC_KMm27EShF3O8Q,King Chef Cuisine,740 King Street W,Toronto,ON,2.5
nDTNgSf1IZKz-qHXySxG1w,Kung Fu Restaurant,19369 Sheriff King Street SW,Calgary,AB,3
NKYirjjTpzezUi4Rhj64bA,Pho 88 North York,5197 Yonge Street,Toronto,ON,3
B_v7rpwUV1mZf0VSCm1IQg,Royal Chinese Seafood Restaurant,735 Middlefield Road,Scarborough,ON,3.5
W9Bh_7mfuUrEAdQBJMVOvA,Sang-Ho Seafood Restaurant,536 Dundas St W,Toronto,ON,3.5
nddvI420y7BKvp6nO8bfMg,Golden Rice Noodle,"4750 Yonge Street, Unit 109",Toronto,ON,3
Rd6Nk0rYburd6G21QUxa8Q,Li's Oriental Kitchen,5280 Dundas Street W,Toronto,ON,3.5
ckLk2nQiTGeVgg62JxZGZg,Golden Fountain Chinese Restaurant,1250 Eglinton Avenue W,Mississauga,ON,3
aeROhG8M_G-W5L6XhD3TXA,Aurora Chinese Restaurant,"82 1st Commerce Drive, Unit 5",Aurora,ON,3
EoUYBTQWpUJr7Sp6Kpw1aQ,Fu Lai,3858 Bloor Street W,Toronto,ON,3
4YdRr-g57XM5rGMqoP2T9w,Hot Bunzz Street Cuizine,170 Spadina Ave,Toronto,ON,4
I-mDBT0rs1ReKpyO4t0ciA,Golden Palace Banquet Hall,"3225 Highway 7, Unit 1",Markham,ON,2
d_oEgPEL7jaMVDBsRf2t-A,Full House Desserts,"Richlane Mall, 9425 Leslie St, Unit 12",Richmond Hill,ON,4
nU5WbRjhoGbLKNQzFq0zjg,Cafe 28,10 E Wilmot St,Richmond Hill,ON,3
Q8-4uLtLJeXHJZZsr2Zexw,Sakura Garden,1921 Avenue Road,Toronto,ON,3.5
HJ928N6c5Hh2KD3lYCuabA,Spring Rolls,"Sheppard Centre, 4841 Yonge Street",North York,ON,2.5
QaxDKkqYTtVYZJcqBNTnvQ,Yummy Yummy Dumplings,79 Huron Street,Toronto,ON,4
YNjW13ls0enqM2Lep2cCsQ,MY Restaurant,8 Washington Street,Markham,ON,4
gjPRvEiJ2WcUJg7Prv2kQQ,Authentic Szechuan Cuisine,"668 Silver Star Boulevard, Unit R202",Toronto,ON,2.5
2e19A9GaSfor4HQc0jxe4Q,Central Grand Restaurant,1623 Centre St NW,Calgary,AB,3
01l8MH9tBK6GPvJQdMU1gw,Kaiseki Yu-zen Hashimoto,6 Garamond Court,Toronto,ON,4.5
ikUSTcW7AL4nKsBjx5co0w,Hakka Urban Bistro,8280 Highway 27,Vaughan,ON,4.5
tZ-h-gFhIWnrC4TR_N9K_Q,Mr Congee Chinese Cuisine,9712 Yonge Street,Richmond Hill,ON,3
zRGCIIez1z4ve5Hppa7eVQ,Mei Ling Chinese Food,15005 Yonge Street,Aurora,ON,4
4Z7MEDgJU6kjCcJA4mfQeQ,Papa John's Bakery,"223 Ceremonial Drive, Unit 11-12",Mississauga,ON,4
qiRyyRWt6jmAxcoVW0-WHA,Heart Sushi,"815 Britannia Road W, Unit 2",Mississauga,ON,3
6nvaj9BI3i2kBmN1IkwyTw,Wing Phat,4201 Rue Jarry E,Saint-Léonard,QC,4.5
H2ljOK6pDHJ-iQzHkijW0w,Chloe's Garden Restaurant,3621 Highway 7 E,Markham,ON,2.5
GOUdhNxanANxxujCTLyCoQ,Sun's BBQ Restaurant,1423 Centre Street NW,Calgary,AB,3.5
cEIrFjyk_-TC70kr3J7lEg,Best Choice Restaurant,"250 Alton Towers Circle, Unit 8",Scarborough,ON,3
Y1wzvTTI_rSAJOF1224LCQ,Honey & Garlic,1661 Denison St,Markham,ON,3.5
pS_AReTDAwTc6YebrCdi1Q,Lido Cafe,144 10 Street NW,Calgary,AB,3.5
uwlQWhtrqm8k7CZwrNtRsg,Tai Ping Hsiang,"3636 Steeles Avenue E, Suite 139",Markham,ON,4
Xyaw8gVBFDdn6rp_NtLhnw,Neighbor Wang,389 Church Street,Toronto,ON,3
Mv3pO01Alty1pXQwi-Uy5A,Rice & Noodle,1508 Queen St W,Toronto,ON,3
yfFDrsV_jTbB8ycIedOiWw,Hong Mère,3795 Rue Wellington,Verdun,QC,4
7d4_aSWLjzu9z778ac4g2g,Fish Soup Supreme,633 Silver Star Boulevard,Toronto,ON,3
kqM_bA4eEAnIMekmyWB5WA,YooJ Express Restaurant,280 Spadina Avenue,Toronto,ON,3
miVPtdbi2xGoZUmYDXZpCQ,Red Tea House,2903 Kennedy Rd,Scarborough,ON,3.5
ZYyi0opV_ivODZ8bU--7Xg,La Maison VIP,1077 Rue Clark,Montréal,QC,3.5
WNk2OoZAgtlOJ_jj_4hldg,Szechuan Legend Restaurant,"505 Highway 7 E, Unit 91 - 92",Thornhill,ON,4.5
TBzgzTFSa7pJXiLD7emYaQ,Lotus Garden Hakka Indian Style Chinese,3460 Danforth Avenue,Toronto,ON,4
2rJQgNBjjZrYotlZgvBdLg,Yun,"3960 Grand Park Drive, Unit C6",Mississauga,ON,3
CIFjkjllhTPGyx9eWBwJGQ,Sprout Hainan Noodle,"5 Northtown Way, Unit 14",Toronto,ON,3.5
o1FLiGssn5Wxc_POWSuZZA,Panda Express,"80 Weston Rd, Ste 39",Toronto,ON,3
Q_z6fepyiviMrqxBQn6E4w,Peking Garden,"4625 Varsity Drive NW, Suite 416",Calgary,AB,3
IFXL6wMLBgBSGSiLBjtViA,Celebrity Hotpot,254 Spadina Avenue,Toronto,ON,3.5
G5bBy0SuDKJ1METoheyPAQ,Mr Gao Restaurant,1177 Burnhamthorpe Road W,Mississauga,ON,3
rfKVqRE2uB1U_jeFfqjssQ,Chopstick Cuisine,2875 Derry Road E,Mississauga,ON,4
75SBuDApJU5ca9tGC1Pw3Q,Phoenix Restaurant,8190 Bayview Avenue,Thornhill,ON,3
MDInVOKvIetk_OIpKd2Ofw,Szechuan Noodle Bowl,400 Dundas Street E,Mississauga,ON,4
raHgmWxE8AVSivo92GX5Wg,Zen Gardens,"6980 Maritz Dr, Ste 6",Mississauga,ON,4
BHi4nZxX5oYYu175aSY4sw,Jack Tan's,770 Bay Street,Toronto,ON,2.5
DVB-m7zPZ2muSqTvP0W5Zw,Pho Hùng,3969 Boulevard LaSalle,Verdun,QC,3.5
gnkyosoOepBUqog7iDdggQ,Chef Papa Tea & Noodle Bar,"8390 Kennedy Road, Unit B1-3",Markham,ON,3.5
vCjosSwslY0Cuc6NjZavRw,Dragon Gem Chinese,19 - 1822 Whites Road,Pickering,ON,3
SzTbr5cAfX9j8DFhIn7sDQ,Hipot Hot Pot Restaurant,"350 Highway 7 E, Unit 105",Richmond Hill,ON,2.5
68PJJkcq_i0SlLqO6t7Qxw,Asian Legend,418 Dundas Street W,Toronto,ON,3.5
WM7Ckyt1oh2LaQPdkYhMwg,A! Xiang,"505 Highway 7 E, Suite 65",Markham,ON,3.5
eIO1Gj0MX29aQXTIEdCpqA,Jiu Xiang Yuan,931 Rue Jean-Talon Ouest,Montréal,QC,4
tH_ObhULoHCb1n08pbHgHQ,Elegant Chinese Cuisine,"5328 Highway 7 E, Unit 4",Markham,ON,2.5
Rsvjo8H6AjqylNRX_6ZcZg,John Wong's Chinese Restaurant,8413 Elbow Drive SW,Calgary,AB,3
XjmHPe0H91BlJ3gwJb7OiA,Ocean Seafood Restaurant,328 Highway 7 E,Richmond Hill,ON,3.5
sePTDv1dGHPID7kwuNzXaA,Sam's Congee Delight,7354 Woodbine Avenue,Markham,ON,4
OiE0TLzbEATzIW8CbGWigA,Shanghai Shikumen Restaurant,"3225 Highway 7 E, Unit 2",Markham,ON,3
wao8YhDY_al99JSrHl3Qow,Alton Restaurant,250 Alton Towers Cir,Toronto,ON,3
HV25Suwkzd-roRc63sEmtA,VIP Vietnamese Cuisine,"3229 Highway 7 E, Unit 11-12",Markham,ON,3
DN4FY9ZLe4TGPtGtQtNhaw,Hot Taste Restaurant,324 Hwy 7 E,Richmond Hill,ON,3
CFRMFcqspWPyhKzUhwIQJA,The Great Wok of China,377 Burnhamthorpe Rd E,Mississauga,ON,3.5
9HWCSPtMP2tU_cTDsEU1Cw,HÀO,251 Rue Rachel E,Montréal,QC,5
SEURrw7032BR15PKZ_aleA,Fancy Chinese Cuisine,"7750 Kennedy Road, Unit 4",Markham,ON,3.5
4vLaHphDBWOy1aI7URQ75Q,Top Choice Restaurant,8362 Kennedy Rd,Markham,ON,3
s5IlpMxrXEciJ-aVTjDryg,King's Garden Sushi and Wok,3103 Kingston Rd,Scarborough,ON,4
BOml4YRmKqx7MiEVvlUadg,China Gourmet Takeout,235 Carlton Street,Toronto,ON,3.5
C04pA51n5jPS6KJJHWyuYA,Willy's Chinese Restauraunt,10459 Yonge St,Richmond Hill,ON,3.5
ANbBHDf1PZp5bQCkEa8YsQ,Commerce Gate Dynasty Cuisine,"505 Highway 7 E, Unit 238, Building B",Markham,ON,2
QWYKZ9mp9ggGQqGEw0LLqA,White Orchid,"360 Highway 7 E, Unit 5",Richmond Hill,ON,3
cPXasVLtq_1gmuSg65TUfQ,Dragon Pearl Buffet,"865 York Mills Road, Unit 2",Toronto,ON,3.5
6gzFPeo3gsIoh4pmXS8HFg,China Food,854 Millwood Rd,East York,ON,4
KUqInLEY1y7SkyZyDoGn0Q,Paradise Fine Chinese Dining,5505 Leslie Street,Toronto,ON,3
VC-S7T5aSOP9HTKu_TNHKA,Ho Garden Chinese Restaurant,9255 Woodbine Ave,Markham,ON,2.5
y-Jp4iSIMDJE4JzGBh7M-g,Noodlebox,"2821 Main Street, Suite 101",Airdrie,AB,4.5
AtUtG-oQp1rkk6ZdYcfSzw,Cafe Hollywood,"Hollywood Square, 7240 Kennedy Road",Markham,ON,3
b41zjWT4pzcTgNY04eKAvg,Go For Tea,"3700 Midland Avenue, Unit 113-115",Toronto,ON,3
UDZMTxC_5wa_kdh0gbG-cQ,Kalok Express,"First Markham Place, 3255 Highway 7 E, Unit 256",Markham,ON,4
JOKoBRVZntmng3Iw6aSg2w,Mon Shing,90 Rue de la Gauchetiere O,Montreal,QC,2.5
Qe8vFq-3HMld-ymBQLDnpg,Cynthia's Chinese Restaurant,7700 Bathurst Street,Thornhill,ON,3
mDUQCaoZTNsouuxJ2KlAoQ,Sato & Chan Sushi Szechuan Thai,"1800 Boulevard Saint-martin Ouest, H7S 1M9",Laval,QC,2
XMuNYC3WbYyBJyzFcn0qpw,Empress Palace Restaurant,"8650 - 112 Avenue NW, Unit 3105",Calgary,AB,2
f5iPbCVgv-2x00ZBoOwU7A,Mahjong Bar,1276 Dundas St W,Toronto,ON,3.5
TjuSHnbPtB83R-1FzdBBgA,Chitose Asian Cuisine,"17235 Leslie Street, Unit 6",Newmarket,ON,4
itEntB3JJOAnRADa_BPrSg,Ho Lee Chow,3466 Dundas St W,York,ON,1
7wduNBQUATNkaYzExyGJpg,Happy Congee,5661 Steeles Avenue East,Toronto,ON,3.5
Q7PWryGwFr52WMmfzqCBhA,Very Fair Chinese Restaurant,4002 Sheppard Ave E,Scarborough,ON,3
Kig-T7wfebjGIpgSKcdlKA,Pho Big Bowl,"2655 Liruma Road, Unit 1",Mississauga,ON,3
6JMrdDVIoQGQaHlfWFRoyA,Original Congee,"5651 Steeles Avenue E, Unit 28",Toronto,ON,3.5
HgL6gGEGoAUBKGrT6BXU4Q,Eat Jackpot,318 Spadina Avenue,Toronto,ON,3
K2CdjES-IZDDEgetOnf0Vw,One2 Snacks,"8 Glen Watford Drive, Unit 26",Toronto,ON,4.5
EKnbQlntPX0FsgAC94XniA,Dagu Rice Noodle Markham,"20 Gibson Drive, Unit 111A",Markham,ON,3
1PMwRG0uWGxk2hIVEQj62A,Spring Villa Chinese Cuisine,7301 Woodbine Avenue,Markham,ON,3
BA13Ogw1hQV8hx376j-B-w,Hakka Spice,3105 Winston Churchill Boulevard,Mississauga,ON,3
WrYz1HW0YuXG1rPa2Vznjg,Tong-Por,12242 Boulevard Laurentien,Montréal,QC,3.5
c1VhAIzfRqnYUao6RQmjQw,Lotus Inn,286 Eglinton Avenue W,Toronto,ON,3
hU1vaeTPmawvpzOyTEAK0Q,Osteo Tuina,403 Dundas Street W,Toronto,ON,3.5
V6mrVw6BpZhiE_Bn3G_Rog,Best Dragon Seafood Restaurant,100 Steeles Avenue W,Vaughan,ON,3
IfrTk1Prg3jr-WZ6jVre2A,Lemon Garden Restaurant,2913 Richmond Road SW,Calgary,AB,3.5
trKyIRyjKqVSZmcU0AnICQ,Pearl Diver,100 Adelaide Street E,Toronto,ON,4
rKhu9apa_dGPl8k36IMYQQ,Étoile Rouge,6707 Boulevard Saint-Laurent,Montréal,QC,4.5
4XH5nRjUVKyRNituBAwW6A,Kim Tao Hot Pot,10 E Wilmot Street,Richmond Hill,ON,3
2dSXKC4BQUFSqsiziNFwtA,Old Neighbour Restaurant,25 Glen Watford Drive,Toronto,ON,4
dndeG_UVJHF1yAdLlZxPzA,Panda Chef Wok & Sushi,"1077 Wilson Avenue, Unit 7",Toronto,ON,3.5
PwcZPVAxhnG-MPPpH3BsYQ,Phoenix Cafe,"10A Edward Street, 2nd Floor",Toronto,ON,3.5
nG0OoboGrModOpvmxL93lA,Feng Kee BBQ House,212 30 Country Hills Landing NW,Calgary,AB,4
cw9Vp_nxdgH5KzYuu1AC2Q,La Mere Restaurant,3278 Midland Avenue,Scarborough,ON,3.5
CztDemHy1q1f2R3VV9jmvA,One Hour Cafeteria,435 Spadina Avenue,Toronto,ON,3.5
9M69HnfjB0d11G9oGLpVgw,Dragon Dynasty Chinese Cuisine,2301 Brimley Road,Scarborough,ON,3.5
E8g8SNXaZb4QUqJMe9JFyw,Yunshang Rice Noodle House,414 Dundas Street W,Toronto,ON,3.5
Q-eUzUjOwRlAXkwN8qDXXg,Noble Seafood,"7220 Kennedy Road, Unit 18",Markham,ON,2.5
X2I47eENvYeVL6QlzAZ0wA,Hey Noodles,5306 Yonge Street,Toronto,ON,3.5
VGwPrBPlbD24SZAT_b0JBw,China China Palace,"1125 Bloor Street E, Unit 8A",Mississauga,ON,4
Xu1_lZl30we4PQlJ58zQ9w,The Green Dragon,1032 Kingston Road,Toronto,ON,4
DqSTQWhRU3WKdIN2b_Nzog,White Elephant Thai Cuisine,1808 19 Street  NE,Calgary,AB,4
qcqDjeirxvdgW5kQVkEwSA,The Red Room,444 Spadina Avenue,Toronto,ON,3
qnfFdA-Ij8jpCPk6IV6igg,Cuppa Tea,20 Carlton Street,Toronto,ON,3
GxzEsd-81hVP6C2h6wMvBw,Big Beef Bowl,1 Byng Avenue,Toronto,ON,3.5
q_KQbgnaYDlPx8EHTydcBQ,Kiko Cafe,3000 Highway 7,Markham,ON,2.5
LqagbpfV0I0ZeanblrrZsA,Skyland De Shanghai,680 Silver Star,Toronto,ON,3.5
4VFSvjuAkcpa2IOPc92Ksg,Scarborough Buffet,"1221 Markham Road, Unit 1A",Toronto,ON,2.5
ZqTXN4qh0Ta1Lp8Z3v-dKg,Green Tea Restaurant,"3235 Highway 7 E, Unit 18",Markham,ON,3
8xPmlVJy2o6x0J04CBpEMQ,Toast Delight,"8339 Kennedy Road, Unit 2659",Markham,ON,4
Eg76PjESw705exvbt_VYjQ,Wu Jian Dao Shanghai Style Restaurant,"2190 McNicoll Avenue, Unit 125",Toronto,ON,3.5
aa0uz1y1-ziTOveuE34HTw,XiangZi Hotpot,3989 Highway 7 E,Markham,ON,2.5
_zh_cug7ewvQEHT-uwaw8w,China Chopsticks,1011 Upper Middle Road E,Oakville,ON,2
j6-aksaGFMUKwMXLbyf8gA,Mandarin Restaurant - Erin Mills,3105 Dundas Street W,Mississauga,ON,3.5
Q6tqrFKl9lnbhdo95ogSeg,Ho-Lee-Chow,175 Dundas Street E,Toronto,ON,2
EhGPj8iJDIdaHnWg9d5BgA,Pearl Harbourfront Chinese Cuisine,"207 Queens Quay W, Suite 200, Queen's Quay Terminal",Toronto,ON,3.5
Uf0NdSvJnFbwbXua7abULg,Dragon Delight,825 St Clair Avenue W,Toronto,ON,3
zLVppC-bmR8BdEDYkhvoiA,Dows Noodles Restaurant,505 Hwy 7  E,Thornhill,ON,3.5
8zyurJRIAEHh_I0Skhcp3w,Congee Wong,"Bayview Hill Centre, 1 Spadina Road, Unit 25-29",Richmond Hill,ON,3
rZfx5LVnSBeLtlXqhLhrCQ,Chili Island Chinese & Thai,4600 130 Avenue SE,Calgary,AB,3
YsqezpbZ-cgwf9kvWpBvFw,Fay Wong,7020 Chemin de la Côte-Saint-Luc,Montréal,QC,3
pAzNUuM3DkDOglojfYMTDw,Wokin Express,"31 Baldwin Street, Unit 5",Brooklin,ON,4.5
AKMvsVr_9meoSmawkEBe4g,Phoenix Chinese Restaurant,7-4040 Creditview Road,Mississauga,ON,3.5
He_4k_w_8bjWnoepahS2zw,Petit Potato,"10 Ravel Road, Unit 1-2",Toronto,ON,3
i9B6_kxVwunw23TCI_BEtw,Grass Mountain Villa,3555 Don Mills Road,North York,ON,3
X8pcwoYfHvee6XwR3ju9_g,Hua Sang Seafood Restaurant,"30 Disera Drive, Unit 100",Vaughan,ON,2.5
anGYRueZJKYCJefKFccfjA,Made In China Hot Pot,"3280 Midland Ave E, Unit 27-28",Toronto,ON,3.5
61eXtTmhDepujO7_IdA9-w,Caribbean Heat Family Restaurant,1300 Finch Avenue W,North York,ON,3.5
O1TvPrgkK2bUo5O5aSZ7lw,Rol San,323 Spadina Avenue,Toronto,ON,3.5
JiecNolGPkAMAsgkK3E4MA,Taste of Western China,4365 Sheppard Avenue E,Toronto,ON,4
1lnIoAIB6U5ywPTC2LG8aQ,Lucky Season Hot Pot,550 Highway 7 E,Richmond Hill,ON,2
Wqa1JjkSuviehZ7OedhPeA,Dayali,20 Gibson Drive,Markham,ON,3
_Ss4d4dYzehTmWJGpkqL7w,Taste of China,338 Spadina Ave,Toronto,ON,3
JfbbFcJgj8Zfn9SjGDnBgQ,New Sun BBQ,3833 Midland Avenue,Toronto,ON,2.5
Q8uwArm4h8bhsqxw84Gd8w,Charcoal Kebab House,3256 Lawrence Avenue E,Toronto,ON,3.5
0nCwewaRirX8wHuSZiaCfg,GoGo Chicken Pot,"10610 Bayview Avenue, Unit 2-3",Richmond Hill,ON,3.5
iMK_sepebKBMfv4TDc-ifw,Asian Buffet,161 Rexdale Blvd,Toronto,ON,3
tUxOHYVW6e1l2frBQ7pAtA,Congee Wong,8390 Kennedy Road,Markham,ON,3.5
sPGbBt01zybTxV2FRdRaDQ,Sichuan Garden Restaurant,359 Spadina Avenue,Toronto,ON,3.5
e4BSPTPc5DLjvdJY18EaVA,Double Lucky Seafood Cuisine,5051 Highway 7,Markham,ON,2.5
GuvbQ3bCMw6xfUfCQ8N1LA,Sum Kee Noodle House,1060 Gerrard Street E,Toronto,ON,4.5
Da_-x3QESNVRXHKIsXAg3g,Niukee,1163 Rue Clark,Montréal,QC,4
zs710LuQ8y10YsQHIjxjyw,Chinese Dumpling House,"505 Highway 7 E, Suite 80-90",Markham,ON,3.5
agQF4Ql-LEYseeo3nC4SbA,East,1250 Boulevard Robert-Bourassa,Montréal,QC,4
w4EX3F0KjJIXL7O1fFWXJw,Foodie North,"325 Central Parkway W, Unit 2 & 4",Mississauga,ON,2.5
U0fN0HPOrBCAwQ5JfNaO_w,The Fortune Dumpling & Bubble Tea,1629 Rue Sainte-Catherine Ouest,Montréal,QC,3.5
YHXczxm4W3BkGT-z7vZBBw,Chatime - Yonge & College,439 Yonge Street,Toronto,ON,3.5
us3kdkEL7ne-88pKhvko7A,La Maison de Mademoiselle Dumpling,6381 Rue Saint-Hubert,Montréal,QC,4.5
IOn53O75uac_cTjHkQkkJQ,APM Dim Sum House,"8110 Birchmount Road, Unit 1-2",Markham,ON,3.5
OR13v_9zCWGstIV_JwvFHQ,Nine Cube Chinese Hot Pot Restaurant,"3229 Highway 7 E, Unit 9",Markham,ON,2.5
85SnEWWFSm8z0EDupfTO7w,Maple Garden Chinese Restaurant,10065 Keele Street,Maple,ON,3.5
E0iHvHraTa-t6ka9rYL8uQ,Walter. Hakka Restaurant & Lounge,"305 Charolais Boulevard, Unit 2",Brampton,ON,4
uFTcyheegHAdRobLf_4Siw,Magic Noodle,"2190 Mcnicoll Avenue, Unit 119",Scarborough,ON,3.5
EhTYPpGzs2MfDspt1nU7Hg,Chef Lin Restaurant,8 Washington Street,Markham,ON,3.5
So_VSzbyBHfEIr5hEHn7Gg,Kingsley Chinese Restaurant,"Brampton Kennedy Square, 50 Kennedy Rd S, Ste 59B",Brampton,ON,2.5
9rzfGwR--QUGn7BZJdm-Sw,Tremendous Chinese Restaurant,3550 Wolfedale Road,Mississauga,ON,3
GcwjbKQ6UeMOB4gpsmqCYw,Shanghai Nook Restaurant,3150 hwy 7,Markham,ON,3
0XlbdDkYzC14SZF_bUGeXA,Chef Chan,227 Main Street N,Markham,ON,3.5
r71RUi85E60aGuhVqXWjKA,Hakka No 1 Restaurant 2,"2355 Keele Street, Unit 15",Toronto,ON,3.5
WoqO6D7Yh7Tbowkpb3pz5Q,Omi Sushi,4352 Kingston Road,Toronto,ON,2.5
RwZxc7vqYGOj99K1CYildQ,Ginger Beef Bistro House,400-388 Country Hills Blvd NW,Calgary,AB,4
uiblCNxg83Q44bA2PYKuYQ,Yummy Dumpling House,5 Northtown Way,Toronto,ON,4
gTUaz3Wlh8eyQ3s7T-6txw,Steam House,4020 Finch Avenue E,Toronto,ON,2.5
MRoTUJyR2TVpvDdbOAtBlQ,Hakka Delight,"7700 Hurontario Street, Suite 108A",Brampton,ON,4
JOrz9T33rVHDbusIKPj96g,Chiuchow Man Chinese Restaurant,1177 Central Parkway W,Mississauga,ON,3.5
_WYb1KDwRxwWfopKVWMYuQ,La Mere Restaurant,"550 Highway 7 E, Unit 53",Richmond Hill,ON,4
awQmoQI2TRAt7VdeRKOR1Q,Sukho Thai,145 Promenade Du Centropolis,Laval,QC,3
pSTQPnaee7euEULfDgIDdg,Yummy Garden,1468 Victoria Park Avenue,Toronto,ON,4
oUdmQBw8RZER1gf18xpTPw,Dumpling & More,442 Dundas Street W,Toronto,ON,3.5
stzbkEGleSE7K_5FriDLSg,Su Shian Yuang,420 Rue Rachel,Montréal,QC,4
7Rp2yHgW0JR3OrSWNdISKw,Popular Pot Inc / Zhuang Yuan Bbq Bar,369 Spadina Avenue,Toronto,ON,3.5
G-0VVUUoNUKT3GrnjZnsaA,Silver Dragon Restaurant,106 3 Avenue SE,Calgary,AB,3.5
NbaP_lZTns_GbTSkQz_KIw,Nks Banquet Hall,"8360 Kennedy Road, Unit B06",Markham,ON,2.5
3C3mydBzZmfzzIt5D5_kOA,China Rose Restaurant,228 28 Street SE,Calgary,AB,3
7F6JYzEDGs2d2mYW_To57A,Chilli Secret,"9021 Leslie Street, Unit 9",Richmond Hill,ON,3
yZZaCLmVbsKqQAdjaszupA,Imperial Buffet,24 Lebovic Avenue,Scarborough,ON,2.5
WkqoHQYYfnQuKEU4a8kjGQ,Dobe & Andy,1111 Saint-Urbain Rue,Montréal,QC,4
sMnXeEbBm3e2d-6tT9Cm6w,Island Wok,"10045 Hurontario Street, Unit 5",Brampton,ON,4
sA_CAFTrAn5g7-7DE2xMNw,Silk Road Restaurant,1852 Dundas Street E,Mississauga,ON,3
dBF_CJt0XDLbLVVr_oXkbw,Wok With Yu,789 Warden Avenue,Scarborough,ON,4
Jc2jTrilr_FPfFpJztnZxQ,Hakka No. 1 Restaurant,4549A Kingston Road,Scarborough,ON,3.5
7wgKazvblPECOzBrd6N50Q,Restaurant Beijing,92 Rue de la Gauchetière O,Montréal,QC,3.5
DuUt446iZMHowlt9AQ5kNg,Oriental Gourmet,5328 Highway 7 E,Markham,ON,3.5
oEXk0ygEurbAiodWP6BmfA,Hua Xing BBQ House,8360 Kennedy Road,Markham,ON,3.5
re-KZo5dPJPZdK-Abqoifg,Resto Lychee,187 Avenue du Mont-Royal E,Montréal,QC,4
6uA2uRexFr8kfv7ghzryHg,On Bridge Rice Noodle,"5 Northtown Way, Unit 9",Toronto,ON,2
Cjs6QghR-nIninfgAoErvw,New Saigon Gourmet,641 Dupont Street,Toronto,ON,3.5
0LA4HKI7ydji1zwnqDbgnw,Sweet Lulu,859 Queen Street W,Toronto,ON,3.5
eeyekhEcL3nf22V71b0Vqw,Hong Kong Gourmet,"460 Renforth Drive, Unit 13",Etobicoke,ON,3.5
vede55OuMkwUNd4wnr8GqA,Mandarin Restaurant - Newmarket,16655 Yonge Street,Newmarket,ON,3
ae95XSsD37OQfOWF92GjNQ,Dragon Legend,25 Lanark Road,Markham,ON,3.5
lpqtCUzSnKc1QGi4wO6ovQ,Nu-Do,705 Rue Sainte-Catherine O,Montréal,QC,4
Ugkr2hV3J6sXdpF48G42yg,Simmer Huang,"505 Highway 7 E, Unit 98 - 99",Markham,ON,3
IZ33QKVggRtHdMdWoDPi6Q,Ginger & Onion Cuisine,"7131 Kennedy Road, Unit E3",Markham,ON,3
RMgAi0_SDDrcFrX5BGNUmw,Surely Up Vegetarian Hotpot,"420 Hwy 7 E, Unit 26",Richmond Hill,ON,4
9prl00viUUFrEcPIpXZDOw,Golden Moon,"1177 Central Parkway W, Unit 05",Mississauga,ON,3.5
yeOsE6Hnl_EiLJw2L5NXLA,Paul Kee Open Kitchen,2950 Birchmount Road,Scarborough,ON,2.5
DuDtRu-zffJgGjFUQkuk_Q,Bobby Chao's Chinese Cuisine & Dim Sum,"34 Edgedale Drive NW, Suite 18",Calgary,AB,3
OllK5_S-7svgSwbUfx1xYA,King's Noodle Restaurant,296 Spadina Avenue,Toronto,ON,3.5
Ki4aSG30_W_2KPjqT50o1w,Eat Canteen,100 Wellington Street West,Toronto,ON,4
nH9sGGOaW0ONeIYcmsK3EQ,Szechuan Legend,3280 Midland Ave,Toronto,ON,3
IjDT98d1UJAiiOI1e41snA,Hot Spot Chinese Cuisine,"9255 Woodbine Avenue, Unit 12",Markham,ON,3
Rth816SKdZHKMpU4vYpfeA,Song's Kitchen,1067 Dundas Street W,Mississauga,ON,3.5
Pe_Bq9cWiLD1L0BEBtrsNw,Ginger Beef Express,1515B 14 Street SW,Calgary,AB,3
pIB-Js9drl27qrrSjKK_eA,Artisan Noodle,5421 Yonge Street,North York,ON,3.5
SNkkuchbVtUzCwyENcai_g,Danji,590 Yonge Street,Toronto,ON,3.5
0v8icS8wOOgEDiHDCOQkZQ,Chilli Chicken House,"4040 Creditview Road, Unit 25",Mississauga,ON,4
LB7r3hZmb4NXb2jDQmmQ9w,Beef Noodle Restaurant,"4271 Sheppard Avenue E, Unit 1",Scarborough,ON,3.5
e178giuAicIhb16ymOtiBg,R&D Restaurant,241 Spadina Avenue,Toronto,ON,3.5
5td-5D7aMQ6zSuSSNLAQjQ,Kong Kee Barbeque,3833 Midland Avenue,Toronto,ON,3.5
Rx_ZwOPb6pusIXeLLrBUqA,Mai Xiang Yuan,1929 Rue Sainte-Catherine Ouest,Montréal,QC,4
Nvd7jbpKcFhpFlWOivEH6A,Chow's Restaurant Chinese Food,335 Dorval Ave,Dorval,QC,3
zw74kL1IvT65yRvNLx5UxA,King Lobster,358 Spadina Avenue,Toronto,ON,3.5
zVZ-OBo-DaaIO89Wiepo-g,Szechuan Szechuan,"1 Bass Pro Mills Drive, Unit 2",Concord,ON,3
Fk3EJL73i9Uql92ndZscMA,Noodle King Chinese Food,3240 Dufferin Street,North York,ON,3
cEFnJrDaz7BLO0xOCJlF6A,Jardin De Jade Poon Kai Restaurant,67 Rue De La Gauchetiere W,Montréal,QC,2
FmwDfn5J7Y8Uvv_FY7iUxQ,Blue Lagoon Seafood Master,"888 Dundas Street E, Unit C3&4",Mississauga,ON,3
a8PzL5rUpCa8MiQEuLZaOQ,Panda House,2714 Saint Clair Avenue E,Toronto,ON,4
9xitj8uws6IpbhlxV5tpSQ,The Only Cuisine Corp,4365 Sheppard Avenue E,Toronto,ON,3.5
tuikCn2ljRGN5QHZBnjoqA,Noodles & Company,66 Wellington Street W,Toronto,ON,3
NImT1XHwwUmoHaPEjIIwRQ,Szechuan Gourmet,1033 Steeles Avenue W,North York,ON,3.5
LGZPjmhEg2QYeGZ2PKnpQw,Yang's Fine Chinese Cuisine,"9665 Bayview Avenue, Unit 30",Richmond Hill,ON,3.5
9O0jWqGnHkBsXMOd-KOl4w,Hot and Sour,"1010 Dreamcrest Road, Unit 2",Mississauga,ON,2.5
vHJlN629vOqgI40noEOdlw,Maison Sai Yan,2230 Boulevard Lapinière,Brossard,QC,3.5
OkKwxF0mGPUzRVOPAWSHFw,Paramount Times Banquet Hall,"550 Highway 7 E, Suite 2/F, Building E",Richmond Hill,ON,2
3FekhBpUmAWXBCvXBhuqVQ,Da Ke Yi Snacks,3833 Midland Avenue,Toronto,ON,3.5
r3Yj3Vc_FOdRfZ4Q4Ei2Eg,Maison du Nord,2130 Rue Saint-Mathieu,Montréal,QC,3.5
6Y5TyCM_zb7BmosuFzbzdg,Chopsticks Szechuan Chinese Restaurant,1163 Ellesmere Road,Scarborough,ON,4
GVfit4Is7HKUizAvgQ1c4g,Szechuan,400 Rue Notre-Dame O,Montréal,QC,3.5
7tI6CIxDpRLqepB6dnW2VQ,Eastern Fortune Restaurant,416 16 Avenue NE,Calgary,AB,4
ZckxLuc9lpz9LDAQlMKWiA,Le Cristal Chinois,"998 Boulevard Saint-Laurent, 6e étage",Montréal,QC,2.5
Xzgs7Y0t-EpbFdvK6in3Ew,Peking Garden,5255 Chemin Queen Mary,Montréal,QC,2.5
UpXigk3SzQR9v4xct_xEVQ,Mandarin Restaurant - Markham,7660 Woodbine Avenue,Markham,ON,3
6TLahk3P8RhP7fZaWgAk0A,Hong Kong Gardens Tavern and Restaurant,2993 Bloor St W,Etobicoke,ON,3
jR-UdyU7cTNxUqMdlTdsiw,Peking Dragon Restaurant,105-601 17 Avenue SW,Calgary,AB,3.5
yEZn1XpLsEC9uBa-X4xAZw,Vua,1579 Rue Saint-Denis,Montréal,QC,4
naIri3sawHNvekftRyrasg,Bulgogee House,41Spring Garden Avenue,North York,ON,3
1uPQTz5XZSWr0ti7kUpaDw,Mai Xiang Yuan,1082 Boulevard Saint-Laurent,Montréal,QC,4
4oVN8DPTpUF4TySkpOU19Q,Northeast Chinese Restaurant,476 Dundas St W,Toronto,ON,3
TIu83s4sWMdhbwimzdfzIQ,Lucky Star Restaurant,739 Queen St E,Toronto,ON,3.5
1lReBAd4iLe0rBLKiurw7Q,ALA Kitchen,"11 Fairburn Drive, Unit 18",Markham,ON,3
m7a1SG9yXes6Ir_ULzjWKA,Wok Box,736 17 Ave SW,Calgary,AB,2.5
0d_aewXm7wVlaTW8Glzxdw,Danforth Dragon,861 Danforth Avenue,Toronto,ON,3.5
BUcTdN-rNE8urCCQuxSOQA,Mother's Dumplings,421 Spadina Avenue,Toronto,ON,3
_oL8XX8dusHBNYQyDhF4fA,Sun Island Eatery,31 Sunmills Drive SE,Calgary,AB,4.5
N_6ct6DK7YYRLfo0GxW_2g,Beijing Dumplings,66 Edward Street,Toronto,ON,3
IjNwvrCE3RWpI4bllEcJWA,Lotus Pond Vegetarian Restaurant,3838 Ave Midland,Scarborough,ON,3.5
5ubokMNw8qfbX2WtxgJG1Q,Magic Wok Cantonese Cuisine,4331 14th Ave,Markham,ON,3
Bp7Qj64Qr8jvj3r7WBtmSg,Sam Woo Restaurant,660 Eglinton Avenue W,Mississauga,ON,3
umN-Nj23wd1-kH7hkAneFg,Auntie's Chinese Burger,"132 3 Avenue SE, Suite 18",Calgary,AB,4
Ywdi76e8mTlCz1jvHG-D4g,Ancom Chinese Restaurant,834 The Queensway,Etobicoke,ON,3.5
jdyM1DAiA7EzuYz1WDhjeA,Ritzy Palace Chinese Cuisine,7301 Woodbine Avenue,Markham,ON,2.5
1kqLZp0_FEMHGx-W4TjTLQ,Hong Kong Style Tea & Fast Food,2301 Brimley Road,Toronto,ON,4
GRjyCNh5OF6NB9JZyrNCkQ,Restaurant Delicieux,5665 De La Cote-Des-Neiges Ch,Montréal,QC,3.5
OLLw7c024G17K6RUUuKDPQ,Bien Maison,1084 Boulevard Saint-Laurent,Montréal,QC,4
F_D-hssVHgarfpqWbFdXow,Mandarin Restaurant - Brampton,238 Biscayne Crescent,Brampton,ON,4
13ngZbrJVhnngzhc-MlXYg,China Gourmet Takeout,877 York Mills Road,North York,ON,3
KvfaPsLlpOZAF276Lpvm4w,Tealicious Tea House,"3278 Midland Avenue, Unit D110",Toronto,ON,3
_xAJZOKBMPOe47p1MphB2w,Fishman Lobster Clubhouse Restaurant,4020 Finch Avenue E,Toronto,ON,4
9HHX_w3O6s07dT6eKuQhGg,Tao Restaurant,4242 Boulevard Décarie,Montréal,QC,2.5
gopA-Q9KWwC8BLIRDhusgg,Singapore Garden Chinese Restaurant,226 Queen Street E,Brampton,ON,3.5
kLiMrnkcV_dfVpejfRlhSg,Sang's Great Food,343 Spadina Ave,Toronto,ON,3
q_c2ZvPJJxYEFPoWMKY2vQ,Jatoba,1184 Place Phillips,Montréal,QC,4
1HplwLVbBid-Bgw1sEPGFg,Dumpling Melody Bistro,3266 W Lake Shore Boulevard,Toronto,ON,2
ctEDsN8pX1dqCFbYaqruyw,Ambassador Chinese Cuisine,38-280 W Beaver Creek Road,Richmond Hill,ON,3.5
4KHo1LnkM69RtWTDBdG16g,31 Kitchen,"10 Ravel Road, Unit 1-2",Toronto,ON,3
qTYcqVFApm5bKlXZtmApVg,Lychee Bay Cuisine,"4771 Steeles Avenue E, Units A3-A4",Scarborough,ON,2.5
ZMCxAECs6KOhpcWpt8HBiw,Mong Kok Chinese Restaurant,"8360 Kennedy Road, Unit 6",Markham,ON,3
UI4lGUcqc4YyzXJ2Uqe6BQ,The 5 Spices Restaurant,1411 Gerrard Street E,Toronto,ON,3
aMqVyPAyIsYDKADl-u9XvA,Chongqing Lao Jiu Men Hotpot,4771 Steeles Avenue E,Toronto,ON,3.5
NJyTPOukXuLK8vabKw7nvA,Hot Spicy Spicy,173 Ravel Road,North York,ON,3
xQljmWh9Lwo_XTqjOV6xwQ,Tangerine Asian Cuisine,"30 Taunton Road E, Unit A108",Whitby,ON,2.5
X6rz732Av_276Dn06dOx9g,CHICXI,3471 Yonge Street,Toronto,ON,4
QxngAo1AnfcihXqdk3IA-g,Dundas Spring Garden,434 Dundas Street W,Toronto,ON,2.5
VYkosZRlRjStOFqIB62orQ,Shaxian Delicacies,"3280 Midland Avenue, Unit 15",Toronto,ON,3.5
FanQrSh9QTDytonKHt9C6Q,Yuan,2115 Rue Saint-Denis,Montréal,QC,4
W9iskCPRfUPfEL0HVmnN0g,Hakka Fusion,1670 Kingston Road,Pickering,ON,3.5
TLKOfsODMF_RiAGAI6IB7w,Oceans Fresh Market,150 West Drive,Brampton,ON,3.5
PD3ganU8NAGkqkcIXYPSxQ,Fudao noodle house,358 Spadina ave,Toronto,ON,4
cE7ArG7tPXsLSBbgHGHYZA,Gourmet Express,1735 Kipling Ave,Etobicoke,ON,4
x44p6wwZ-HZdKeuxEqwHtg,The Dumpling Hut,3591 Rue Clark,Montréal,QC,4.5
ikI3t6meCr4_DpHHZs6N2w,Kwan,1496 Yonge Street,Toronto,ON,3.5
OygJyqypKFZJIZ6r9dML7w,New Markham Villa,146 Old Kennedy Road,Markham,ON,2.5
bbr4F3c0KHU8ugn8YgEtKA,Green Bamboo Restaurant,4221 Sheppard Avenue E,Scarborough,ON,3.5
0R87tcWUqkWXAD5z0vZcuQ,Golden Horse Restaurant,"4580 Highway 7 E, Unit 3",Markham,ON,3
x689C95HU7UPfPXNL4txKQ,Golden Jade Restaurant,820 Denison Street,Markham,ON,3.5
Rd2dzpMw_iHh8zeMuL2TWQ,Zem-One,51 Village Centre Place,Mississauga,ON,3.5
410NJLoLryd-vYNwRA58pw,Restaurant Ruby Rouge,1008 Rue Clark,Montréal,QC,3
x2kGa_XkRy00cYotdlfmag,China Cottage Restaurant,5985 Steeles Ave E,Scarborough,ON,3.5
WF0I9AwErfaqkPPXM98ywQ,Lucullus Bakers & Roasters,"7750 Kennedy Road, Unit 2-2A",Markham,ON,3.5
00I_YBjgZAvd2ggZr3J0cQ,Shanghai Chinese Restaurant,5451 Yonge Street,Toronto,ON,3
P7r8DnVRIVfEhwl14x7zbg,Chinese Dumpling House,4040 Creditview Road,Mississauga,ON,3
EZUhUW3S8qG9kEfnkWlZxg,Fung Lam Court Chinese Restaurant,7220 Kennedy Road,Markham,ON,3
z8oIoCT1cXz7gZP5GeU5OA,Milliken Bar & Restaurant,4016 Finch Avenue E,Toronto,ON,3.5
uzAQ_-HefBY2Pe-zrLXskw,Sam May BBQ,8 Glen Watford Drive,Scarborough,ON,2
hPTx2Y5e4Czbr21XcbDN8g,Mei Nung Beef Noodle House,"3255 Highway 7 E, Unit 15",Markham,ON,4
kpxUsRQ7i65ipQ4wLeZKeQ,Ka Lo Hin,1240 Stanley Street,Montréal,QC,2.5
Vuk8Xn0RmP1o88QqfB75qg,Bonflavor,"100 Steeles Avenue  W, Unit 18 & 19",Vaughan,ON,3
SkX-aQm96aEkLCTJdAyXMw,Peking House 98,4125 4 Street NW,Calgary,AB,4.5
NMQb_TvWEOGkaZDrNC03wA,Kanbai,1813 St-Catherine O,Montréal,QC,3.5
rkTFLIt_Z1bYMIuXfSyAqg,Wonton Hut,"Markham Town Square, 3760 Highway 7 E",Markham,ON,3.5
r4MUq8ugq7-BL0R_G9onfg,Golden Central,5016 Centre Street NE,Calgary,AB,3
4GVh_mSD7f7DfhEnBF-j-g,Restaurant Kam-Shing,575 Boul St-Martin O,Laval,QC,3.5
xm4hFRYDr-MCTBqVCmAn9Q,Pho 99,"4557 Hurontario Street, Unit B8",Mississauga,ON,4.5
r686UypLrXp4R8fZ71txDg,Chinese Cultural Centre Cuisine,"197 1st Street SW, Suite 88, Calgary Chinese Cultural Centre",Calgary,AB,3.5
oH3V-79Cldz_6sWXi0yuoQ,Chinese Halal Restaurant,"668 Silver Star Boulevard, Unit 201",Scarborough,ON,3
oxS9yB0o6dsNyHviLmjZFg,Gia Ba,5766 Avenue Monkland,Montréal,QC,3.5
QjpSzBvyLHmsj8jR6ijq6w,Chinoiseries et Dumplings,4509 Rue Chabot,Montréal,QC,3.5
Rh2smrKvcamnP8VBUgMI0Q,Dim Sum King Seafood Restaurant,"421 Dundas St W, 3rd Fl",Toronto,ON,3
Dl-hhPCjRJM221XSwiuTbg,Legend Pot,"7030 Warden Avenue, Unit D3",Markham,ON,3
52M-iwLEc185itv2BiuKmA,Buddy HK Cafe,2950 Birchmount Road,Toronto,ON,3
ag8gM2YKZkjndCvl2ti7kQ,Chinese Dumpling House,623 Bloor Street  W,Toronto,ON,4
8Sqd1E8Jhjt3pbsoyOZ4dQ,Szechuan Express,"200 Bay St, South Tower, Concourse Level",Toronto,ON,3
rntKF4Dm9JIJoSNi5XqRsQ,Northern Dumpling Kitchen,"550 Highway 7 E, Unit 52A",Richmond Hill,ON,3.5
nt4u1wSGcvxZL6e15oViWw,Peaktop Cuisine,"3255 Rutherford Road, Unit 22-25, Building 3",Vaughan,ON,2.5
GXbag8-ubKs5qb1dMNyMTQ,The Sugar,10 Ravel Rd,North York,ON,3
QD1JTSxlljWOCsFuXaYUQw,Dandelion Noodle,"3250 Midland Avenue, Unit G-123",Toronto,ON,3.5
uHyvmKKhKM0sip12o4HyFA,Sam Woo Seafood Restaurant,325 Bamburgh Circle,Scarborough,ON,3.5
hKf6pKpz4VaJ3IOP9zusSQ,Spoonful Chinese & Thai Cuisine,"6404 Bowness Rd NW, Unit 105",Calgary,AB,3.5
TYEQ38ONpmYMYv378IByhw,Mr Congee Chinese Cuisine,2900 Warden Avenue,Scarborough,ON,3
xL-Ckvr8k8vEBJxC1wsCqQ,Wah Sing Seafood Restaurant,47 Baldwin Street,Toronto,ON,3
O_9K3WhlGlXW3KFPfTo0yA,Steam Kitchen,"328 Highway 7 E, Unit B1 & B2",Richmond Hill,ON,2.5
B41kSVjdFOwOrZTuJaTF7g,Bashu Sichuan,"4559 Hurontario Street, Suite A-7A",Mississauga,ON,3
n4Nvr46Gqt75ok_ykftcXw,Szechuan Et Nouilles,355 Rue Bernard O,Montréal,QC,3
AbQMlXCfWvMnNXADMaiMIw,TCJ Restaurant,64B Queen Street E,Toronto,ON,3.5
naTXjWzBdINebf6jfnwtwA,Restaurant Hong Kong,1023 Saint-Laurent Boul,Montréal,QC,2.5
PV1lnCp6_OVsR93El679BQ,Papa Jackie,4745 Boulevard Grande Allée,Brossard,QC,3.5
OVDGshcmfb4_6hyIdCu5Xg,Nouille Express,1510 Boulevard de Maisonneuve Ouest,Montréal,QC,3.5
cPzIic1AqH1ApTVVaww5hw,Aji Sai,813 Yonge Street,Toronto,ON,2.5
2-l_q7HBRak5i6X46l0OHw,The Dessert House,111 2nd Avenue SE,Calgary,AB,3
jg37O7ANF7hqggS6bxUpcQ,Pho Thanh Vietnamese Noodle House & Restaurant,6630 4 St NE,Calgary,AB,3.5
OB8vZCzHXv9ZyKLTJe2K3g,Regal Chinese Restaurant,1571 Sandhurst Circle,Toronto,ON,2
xUUKtG0E-qAv3RyeOV20rg,Tak Fu Seafood Restaurant,633 Silver Star Boulevard,Toronto,ON,4
18xmM5Z3fwcI6UD0M4M8mg,China Buffet King,9737 Yonge Street,Richmond Hill,ON,3
HwgCbqHWaM4uWGp_A1G1nQ,Lime Asian Kitchen,3243 Yonge Street,Toronto,ON,4
6vV13vQlpcDtfOIVyDruvQ,Lai Doh Restaurant,"4675 Steeles Avenue E, Suite 1R5",Scarborough,ON,3.5
F9h98ZFHLCHG7SdVbXMz0g,Kwan At York Mills,"808 York Mill Road, Unit 8",Toronto,ON,3.5
f0zHPEwKLf3Aguf_IDemRQ,Noodle Face Co,41 Baldwin Street,Toronto,ON,3
pLj8MPkuK6OH9EtB_-6Szg,Canteen,280 Spadina Avenue,Toronto,ON,3.5
QxnwaNgY6_e88SBfmT6k1w,Richmond Court Restaurant,328 Hwy 7 E,Richmond Hill,ON,3
aWu1homxB6lciXU6-ZlpSQ,Wei's Taiwanese Food,2578 Birchmount Road,Scarborough,ON,3.5
oVtnnGat2Wco0ksQT1cGCA,Heart Sushi,301-30 Bristol Road E,Mississauga,ON,3
KgGxH5cGXwTMCn_hFgchtw,Panda Express,"#631, 409 East hills Blvd Se",Calgary,AB,3
XePtPReLbA-QLtZAFwaTaA,China Impression,1100 Burnhamthorpe Road W,Mississauga,ON,2.5
KqC7y46lAjWAksfKsWStWw,Cuisine Szechuan,2350 Rue Guy,Montréal,QC,3.5
dwgeEOAcPuR-GhpMBaJmjA,Made In China Hot Pot,505 Highway 7 E,Markham,ON,3
ICdzSGuv70gpSk7aqpIrHw,Wok-In Bbq,"3540 Rutherford Road, Unit 67",Vaughan,ON,4
mt5kFJr1rOqIajMguELR9Q,Saigon Flower Restaurant,1138 Queen Street W,Toronto,ON,2.5
mevOvXMnlTLbSl4w8fcG2A,Choice of the Orient,7766 Martin Grove,Vaughan,ON,4
cdLBNUBgPurw3PyLXvbiGA,Dickens Cafe,"9425 Leslie St, Unit 6-7",Richmond Hill,ON,3.5
6zqq704wFsLnR_I1P9VZLg,DaGu Rice Noodles,68 Rue de la Gauchetière O,Montréal,QC,4.5
fACUiSmM2sq1VTYVFUagRg,Bubble Kitea,1960 Dundas Street W,Mississauga,ON,3.5
FvwB6cSrkfIlfZFlhKwd6w,Super Noodles,5397 Chemin de la Cote-Saint-Luc,Montréal,QC,3
X9ftU-exKhTMOjtr3B52rw,Jim Chai Kee Wonton Noodle,"3700 Midland Ave, Unit 109",Toronto,ON,4
xhCedppPevQmpaxQqSbp7g,Mandarin - Brampton West,165 Fletchers Creek Boulevard,Brampton,ON,3
3cAy1gxlprn1ue0q3L_ziw,Lee Chen Asian Bistro,813 Yonge Street,Toronto,ON,3.5
64Wt06TZjb9Se8q3kdeOJQ,Number One,862 Pape Avenue,East York,ON,3.5
TdmFg-MSbwnpwRJxFyfgDw,Emerald Garden Restaurant,1006 16 Ave NW,Calgary,AB,4
Mt0OqthtNCKACj1PbKoHxQ,Five Asian Cuisine,9340 Bathurst Street,Thornhill,ON,3.5
UBKAE_miJ-lVmUqOTlI13g,Benab Family Restaurant,"3085 Hurontario Street, Unit 17",Mississuaga,ON,4
tIXpNWE6R1yadAThbSefHw,Wanlee Loy,5651 Steeles Avenue E,Toronto,ON,4
vMpJzMFst_9GP4boeqWIRg,Congee Queen,"6464 Yonge Street, Unit 152",Toronto,ON,3.5
wFTUOOJ_0quggjgXOpP7DA,Sa-Fire Restaurant & Bar,308 Painted Post Drive,Toronto,ON,4.5
LoB-Ho9DRsNcWkoz_a_vJA,Pho Le,1842 Lakeshore Road W,Mississauga,ON,3
OUB81Dpb6m7HjW4ZmeSlmw,Mean Bao,167 Bathurst Street,Toronto,ON,3.5
P5NfFdOUSyhEjbMlfnxPpA,Dynasty House Seafood Restaurant,1635 Lawrence Avenue West,Toronto,ON,2.5
Ax1DHVBCpaBpViUvSwDdSg,China Island,1572 Bloor St W,Toronto,ON,3.5
4h0JeXtiLaqqpB-9-V7few,98 Aroma,440 Spadina Avenue,Toronto,ON,4
tOsvHZpxmyIK4Ngk8FaLJg,Fish Ball Place,4300 Steeles Ave. E,Markham,ON,3.5
4Yi3mOofceLVKxiGDPBqMw,Grotto Noodle House,398 Ferrier St,Markham,ON,3
4egAyQgylMPJgngmNGCloA,Ann's Congee,"1102 Centre Street, Unit 2",Vaughan,ON,4
pQyPa2pdQSQCn5gjJW_BTw,Golden Stove,2418 Lakeshore Boulevard W,Etobicoke,ON,3.5
yGDiAVoQB8LX3OsJ4e2I0A,Kin-Kin Bakery & Bubble Tea,595 Bay Street,Toronto,ON,3.5
9IPhtuW8DfntzvTc81kthg,Fondue Kim Long,3250 Boulevard Crémazie E,Montréal,QC,4
sSrPEj6v9XXHxybYbepnMA,Fang Chi,3967 Rue Saint-Antoine Ouest,Montréal,QC,4
x8_vFLAheiN5sfZEE9YPew,Maple Dragon Chinese Restaurant,"2810 Major MacKenzie Dr, Unit B9",Maple,ON,2.5
MVBCWXTDtU8C1Qh5mMNSKA,Gold Mark Chinese Cuisine,7501 Woodbine Avenue,Markham,ON,2.5
qGtagj4xXNrF9rIEkiihTw,Orchid Thai,15474 Yonge Street,Aurora,ON,4.5
oTBKmF-wFyq5k7fEXdkAuQ,Steam Legend,"328 Highway 7 E, Unit B1 & B2",Richmond Hill,ON,2.5
Q6ql-vhEfkUiry1r0XoDTA,Too Hot Hotpot,11 Fairburn Drive,Markham,ON,3
Rnck2nc0j-FbolNiae2grg,Golden Asian Cuisine,123 Rexdale Blvd,Toronto,ON,4
1FL3oE2mqq_EFAYPd1TWUg,Meet Dumplings,649 Yonge Street,Toronto,ON,3
LEGrkbp-fpUxL67HHtzz9A,Mamak Dang Fusion Malaysian Cuisine,4604 12th Street NE,Calgary,AB,4.5
fnLiPkJL0ur4-pS99bgqGA,Grand Noodle,"505 Highway 7 E, Unit 50-53",Markham,ON,3.5
mymlOeTImIWcvZWFZVvbXQ,Meet You Leisure Restaurant,5437 Yonge Street,Toronto,ON,3.5
wakI-46P1BLMnf4zdH3V2g,Westwood Grill,519 Annette Street,Toronto,ON,3
eMTE-wqpk_YWaV3mf7Ii3A,Spring Rolls,1800 Sheppard Ave E,Toronto,ON,2.5
c-Ur4wPDNjt-e2N5MkRRaQ,Cha Lau Dim Sum,476 Yonge Street,Toronto,ON,3
vyADUSXZOVXHOUZYEDA04Q,JCer,505 Boulevard de Maisonneuve O,Montréal,QC,4.5
f9OqUyBsY4wCfsnrcIj_Xw,Les Châteaux Restaurant,"8360 Kennedy Road, Unit 7",Markham,ON,2.5
-7EwIdxcRC5McO35DVfeSQ,Xin Jiang Restaurant,3636 Steeles Avenue E,Markham,ON,3.5
vnVteOrD56j6D6wA5Qi2dg,Han's Restaurant,"303 Centre Street SW, Unit 116",Calgary,AB,4.5
TcKQgA509ffYhQnmaOrwjQ,Fung Shing,1102 Boulevard Saint-Laurent,Montréal,QC,3.5
w0ZxXnBGPImeZ9sGMLfe7g,Canton Kitchen,3117 Sheppard Avenue E,Toronto,ON,4.5
f8R1qFYugdhQRR-ym8SUxg,The Red,"5328 Highway 7 E, Suite 3",Markham,ON,3.5
E_mRnwhHLuz6tgMBScw1mw,Phoenix,"3730 Kingston Road, Suite 2",Toronto,ON,4.5
S-IEFGXse5vvnD9GBhasVA,The Cherry Inn,6722 - 4 Street NE,Calgary,AB,3.5
Lv9wzkvPrVG-VdPGcw53_A,Fishman Wharf Seafood,"4080 Steeles Avenue E, Unit 3-5",Markham,ON,3.5
GVnzZe_qGtfQWB8YtWTq1Q,Snow Palace,"5403 Crowchild Trail NW, Suite 1B",Calgary,AB,4
DoZnn9iFwXglLs8Smmvd8A,Noodle Soup,"3255 Highway 7 East, Unit 257",Markham,ON,3.5
88TztTRS7K80OvWpolm4sQ,Glorious Chinese Cuisine,1661 Denison Street,Markham,ON,2.5
I-4CIMvJy_M7U4EuCijxZw,Westown Chinese Food,2710 Dundas St W,Toronto,ON,2
SwNYwAqyTEksiCzORkkC8A,Chat Bar,187 Main Street,Unionville,ON,3.5
Whzg5Koaz9yJ6mwIl7QkqQ,Wok N' Roll,4293 Rue Saint-Denis,Montréal,QC,3.5
An-JJle53UMHokU4MwFktg,Deer Garden Signatures,"633 Silver Star Boulevard ., Unit 125",Toronto,ON,3.5
3rHMaoarZ13Qrafr2DeFcA,The Zen,"30 Broadleaf Avenue, Unit 5",Whitby,ON,3
sVEE_Mp3EbWW1UIhfActVA,The King's Kitchen,"9275 Hwy 48, Unit 11",Markham,ON,3
